FID,OBJECTID,Id,categ,pend_porc,Fuente,id_pend,COD_COB25_,NOM_COB25,SIM_COB25,GEOLOGIA_1,GEOLOGIA_2,LATITUD_Y,LONGITUD_X,Elevacion,Pendiente,NOMBRE,CODIGO,DATO_ID,FECHA1,FECHA2,CONCAT,Long,Lat,ESTACIÓN,P_24H__mm_,P_3DIAS__m,P_7DIAS__m,P_10DIAS__,P15DIAS__m,P30DIAS__m,P60DIAS__m,P90DIAS__m
0,1,7,Amenaza baja,0 a 3%,"DAPM, curvas de nivel cada 10m",1,41120,Ríos,RIO,Qca2(RPan),Cono aluvial 2 rio Pance,3.322483286,-76.55149463,1027.87439,18.60763741,LA RIVERITA,2622310103,1,2/28/2018 0:00,2/28/2018 0:00,2/28/2018LA RIVERITA,-76.55149463,3.322483286,LA RIVERITA,0,0,22.9,44.4,73.5,309.6,504.4,619.9
1,2,7,Amenaza baja,0 a 3%,"DAPM, curvas de nivel cada 10m",1,23171,Pasto cultivado arbolado,PCUAR,Kv,Formacion Volcanica,3.449622047,-76.56617727,1070.66626,16.97060204,CALI - BOCATOMA,2622400106,2,2/9/2016 0:00,2/9/2016 0:00,2/9/2016CALI - BOCATOMA,-76.56617727,3.449622047,CALI - BOCATOMA,0,0,0.6,0.6,3.4,35.4,57.2,155.4
2,3,7,Amenaza baja,0 a 3%,"DAPM, curvas de nivel cada 10m",1,32211,Arbustal y matorral abierto bajo de tierra firme,ABAFBA,TQj,Formacion Jamundi,3.321914951,-76.55314365,1022.747253,11.76323891,LA RIVERITA,2622310103,3,2/25/2018 0:00,2/25/2018 0:00,2/25/2018LA RIVERITA,-76.55314365,3.321914951,LA RIVERITA,0,1,44.4,47.6,100.7,303.7,508.1,622.3
3,4,7,Amenaza baja,14-25%,"DAPM, curvas de nivel cada 10m",4,23170,Pasto cultivado,PCU,TQj,Formacion Jamundi,3.302183942,-76.56352768,1058.497437,27.95201874,JAMUNDI,2622100202,4,2/7/2018 0:00,2/7/2018 0:00,2/7/2018EL PALACIO,-76.56352768,3.302183942,EL PALACIO,0,0,5,10,14,82,211,539
4,5,7,Amenaza baja,0 a 3%,"DAPM, curvas de nivel cada 10m",1,31311,Bosque mixto fragmentado con pastos y cultivos,BNFPNC,Qca1(RPan),Cono aluvial 1 rio Pance,3.361823615,-76.54941008,1012.649475,24.8802948,LA RIVERITA,2622310103,5,8/11/2017 0:00,8/11/2017 0:00,8/11/2017LA RIVERITA,-76.54941008,3.361823615,LA RIVERITA,2,31,31.4,31.4,31.4,84.5,156.5,271.2
5,6,7,Amenaza baja,14-25%,"DAPM, curvas de nivel cada 10m",4,11111,Zonas urbanas continuas,ZUC,Kv,Formacion Volcanica,3.446875299,-76.54078611,1034.65564,7.418504238,PLANTA RIO CALI,2622400103,6,3/25/2023 0:00,3/25/2023 0:00,3/25/2023PLANTA RIO CALI,-76.54078611,3.446875299,PLANTA RIO CALI,0,11,15.3,17.8,39.4,141,218.1,294.9
6,7,7,Amenaza baja,0 a 3%,"DAPM, curvas de nivel cada 10m",1,11111,Zonas urbanas continuas,ZUC,Kv,Formacion Volcanica,3.452328489,-76.55088692,1029.619263,4.604764938,EL ANCLA,2622420106,7,1/21/2019 0:00,1/21/2019 0:00,1/21/2019EL ANCLA,-76.55088692,3.452328489,EL ANCLA,0,0,21.3,21.3,21.3,84.6,417.5,622.5
7,8,7,Amenaza baja,14-25%,"DAPM, curvas de nivel cada 10m",4,32211,Arbustal y matorral abierto bajo de tierra firme,ABAFBA,TQj,Formacion Jamundi,3.304113285,-76.56989703,1038.599487,28.27173233,JAMUNDI,2622100202,8,1/28/2015 0:00,1/28/2015 0:00,1/28/2015EL PALACIO,-76.56989703,3.304113285,EL PALACIO,12,12,27,74,134,153,234,394
8,9,7,Amenaza baja,0 a 3%,"DAPM, curvas de nivel cada 10m",1,23172,Pasto cultivado enmalezado,PCURA,TQj,Formacion Jamundi,3.311331906,-76.56060283,1083.788818,14.13458633,EL PALACIO,2622100102,9,1/19/2018 0:00,1/19/2018 0:00,1/19/2018EL PALACIO,-76.56060283,3.311331906,EL PALACIO,0,4,32,62,85,188,281,566
9,10,7,Amenaza baja,14-25%,"DAPM, curvas de nivel cada 10m",4,31112,Bosque mixto denso bajo de tierra firme,BNDBAJ,TQj,Formacion Jamundi,3.312314051,-76.57207407,1099.497681,63.93966675,PANCE - CHORRERA,2622110103,10,1/3/2016 0:00,1/3/2016 0:00,1/3/2016PANCE - CHORRERA,-76.57207407,3.312314051,PANCE - CHORRERA,1,4,4.4,4.4,4.6,31.4,294.2,310.6
10,11,7,Amenaza baja,0 a 3%,"DAPM, curvas de nivel cada 10m",1,23172,Pasto cultivado enmalezado,PCURA,Qca2(RPan),Cono aluvial 2 rio Pance,3.312796932,-76.54523325,1002.927063,6.937963963,EL PALACIO,2622100102,11,1/3/2018 0:00,1/3/2018 0:00,1/3/2018EL PALACIO,-76.54523325,3.312796932,EL PALACIO,0,3,66,89,103,114,445,503
11,12,4,Riesgo bajo,14-25%,"DAPM, curvas de nivel cada 10m",4,11111,Zonas urbanas continuas,ZUC,Kv,Formacion Volcanica,3.411655951,-76.56388681,984.0561523,11.05988693,IDEAS,2622330111,12,8/10/2016 0:00,8/10/2016 0:00,8/10/2016IDEAS,-76.56388681,3.411655951,IDEAS,0,0,1.2,1.2,23.4,25.4,115.5,265.4
12,13,4,Riesgo bajo,0 a 3%,"DAPM, curvas de nivel cada 10m",1,12111,Otras superficies artificiales con construcción,OICC,Qca(RMel),Cono aluvial rio Melendez,3.388050019,-76.55261171,977.6377563,29.26873589,NAPOLES,2622330108,13,2/6/2019 0:00,2/6/2019 0:00,2/6/2019NAPOLES,-76.55261171,3.388050019,NAPOLES,0,0,10.1,10.1,32.6,71.9,54.3,308.3
13,14,4,Riesgo bajo,14-25%,"DAPM, curvas de nivel cada 10m",4,11111,Zonas urbanas continuas,ZUC,Kv,Formacion Volcanica,3.47263319,-76.55520681,1186.78186,31.21404457,EL COLEGIO,2622420105,14,1/21/2016 0:00,1/21/2016 0:00,1/21/2016EL COLEGIO,-76.55520681,3.47263319,EL COLEGIO,0,0,0,0,2,10.7,27.5,194.4
14,15,7,Amenaza baja,0 a 3%,"DAPM, curvas de nivel cada 10m",1,31311,Bosque mixto fragmentado con pastos y cultivos,BNFPNC,TOf,Formacion Ferreira,3.359665728,-76.56178535,1074.297241,13.7524519,LA RIVERITA,2622310103,15,1/12/2018 0:00,1/12/2018 0:00,1/12/2018LA RIVERITA,-76.56178535,3.359665728,LA RIVERITA,3,3,55.9,71.7,174.4,273.4,496.2,641.3
15,16,7,Amenaza baja,0 a 3%,"DAPM, curvas de nivel cada 10m",1,41120,Ríos,RIO,Qca2(RPan),Cono aluvial 2 rio Pance,3.321812269,-76.55053865,1024.527344,16.12051964,LA RIVERITA,2622310103,16,2/28/2018 0:00,2/28/2018 0:00,2/28/2018LA RIVERITA,-76.55053865,3.321812269,LA RIVERITA,0,0,22.9,44.4,73.5,309.6,504.4,619.9
16,17,7,Amenaza baja,14-25%,"DAPM, curvas de nivel cada 10m",4,32310,Vegetación secundaria o transición,VEGSEC,TOf,Formacion Ferreira,3.350238341,-76.56896588,1207.314087,24.05542946,LA RIVERITA,2622310103,17,7/13/2018 0:00,7/13/2018 0:00,7/13/2018LA RIVERITA,-76.56896588,3.350238341,LA RIVERITA,0,0,2.4,2.4,9.9,23.3,208.2,353.9
17,18,7,Amenaza baja,0 a 3%,"DAPM, curvas de nivel cada 10m",1,23171,Pasto cultivado arbolado,PCUAR,TQj,Formacion Jamundi,3.319631756,-76.55940448,1125.481201,9.575073242,LA RIVERITA,2622310103,18,1/14/2018 0:00,1/14/2018 0:00,1/14/2018LA RIVERITA,-76.55940448,3.319631756,LA RIVERITA,6,22,42,75.1,120.5,280.8,495.9,654.7
18,19,4,Riesgo bajo,0 a 3%,"DAPM, curvas de nivel cada 10m",1,11111,Zonas urbanas continuas,ZUC,Kv,Formacion Volcanica,3.450063785,-76.54375937,1008.431885,14.47581387,PLANTA RIO CALI,2622400103,19,1/19/2017 0:00,1/19/2017 0:00,1/19/2017PLANTA RIO CALI,-76.54375937,3.450063785,PLANTA RIO CALI,0,6,9.6,18,55.1,108.8,174.3,256.1
19,20,7,Amenaza baja,0 a 3%,"DAPM, curvas de nivel cada 10m",1,23171,Pasto cultivado arbolado,PCUAR,Qca1(RPan),Cono aluvial 1 rio Pance,3.354738044,-76.55111496,1066.57605,3.015621424,LA RIVERITA,2622310103,20,1/8/2018 0:00,1/8/2018 0:00,1/8/2018LA RIVERITA,-76.55111496,3.354738044,LA RIVERITA,0,33,48.6,127.6,247.9,266.8,488.4,638.1
20,21,7,Amenaza baja,14-25%,"DAPM, curvas de nivel cada 10m",4,31111,Bosque mixto denso alto de tierra firme,BNDALT,Ql/Kv,Lateritas Formacion Volcanica,3.429644379,-76.60001925,1729.407593,30.59772873,YANACONAS,2622410102,21,1/4/2018 0:00,1/4/2018 0:00,1/4/2018YANACONAS,-76.60001925,3.429644379,YANACONAS,6,25,129,202,222,245,431,644
21,22,7,Amenaza baja,0 a 3%,"DAPM, curvas de nivel cada 10m",1,32211,Arbustal y matorral abierto bajo de tierra firme,ABAFBA,Qca2(RPan),Cono aluvial 2 rio Pance,3.346013038,-76.56057834,1117.258301,32.99697876,LA RIVERITA,2622310103,22,1/17/2018 0:00,1/17/2018 0:00,1/17/2018LA RIVERITA,-76.56057834,3.346013038,LA RIVERITA,0,25,47,67,116.1,303.7,518.3,679.6
22,23,4,Riesgo bajo,14-25%,"DAPM, curvas de nivel cada 10m",4,11211,Zonas urbanas discontinuas,ZUD,Kv,Formacion Volcanica,3.441937953,-76.55704816,1154.147583,36.52463913,PLANTA RIO CALI,2622400103,23,8/1/2003 0:00,8/1/2003 0:00,8/1/2003PLANTA RIO CALI,-76.55704816,3.441937953,PLANTA RIO CALI,12,20,25,25,27,45,223,406
23,24,4,Riesgo bajo,14-25%,"DAPM, curvas de nivel cada 10m",4,23170,Pasto cultivado,PCU,Ql/Kv,Lateritas Formacion Volcanica,3.521254812,-76.61426173,1910.642944,6.284516335,SAN PABLO,2622420102,24,2/26/2020 0:00,2/26/2020 0:00,2/26/2020AGUACATAL,-76.61426173,3.521254812,AGUACATAL,0,15,79.2,79.2,85.4,114,241.8,302.2
24,25,4,Riesgo bajo,14-25%,"DAPM, curvas de nivel cada 10m",4,12211,Otras superficies artificiales sin construcción,OISC,Kv,Formacion Volcanica,3.438580116,-76.54588113,996.7855835,23.88170433,PLANTA RIO CALI,2622400103,25,2/5/2017 0:00,2/5/2017 0:00,2/5/2017PLANTA RIO CALI,-76.54588113,3.438580116,PLANTA RIO CALI,0,0,0.6,18.4,18.4,63.9,152.1,233.9
25,26,7,Amenaza baja,0 a 3%,"DAPM, curvas de nivel cada 10m",1,23170,Pasto cultivado,PCU,TQj,Formacion Jamundi,3.32943486,-76.5562211,1044.850708,13.02233124,LA RIVERITA,2622310103,26,5/1/2018 0:00,5/1/2018 0:00,5/1/2018LA RIVERITA,-76.5562211,3.32943486,LA RIVERITA,0,12,24.6,79.3,103,136.7,247.1,477.9
26,27,4,Riesgo bajo,14-25%,"DAPM, curvas de nivel cada 10m",4,11211,Zonas urbanas discontinuas,ZUD,Ql/Kv,Lateritas Formacion Volcanica,3.375389784,-76.59523234,1500.505249,13.16997337,LILI - SAN SEBASTIAN,2622310201,27,2/5/2016 0:00,2/5/2016 0:00,2/5/2016LILI - SAN SEBASTIAN,-76.59523234,3.375389784,LILI - SAN SEBASTIAN,0,1,0.6,3.2,26.6,36,65.2,138.4
27,28,4,Riesgo bajo,0 a 3%,"DAPM, curvas de nivel cada 10m",1,11111,Zonas urbanas continuas,ZUC,Kv,Formacion Volcanica,3.440244817,-76.54196753,1017.470947,13.60008812,PLANTA RIO CALI,2622400103,28,1/8/2015 0:00,1/8/2015 0:00,1/8/2015PLANTA RIO CALI,-76.54196753,3.440244817,PLANTA RIO CALI,0,0,0,0,0.2,62.2,262.2,512.4
28,29,4,Riesgo bajo,14-25%,"DAPM, curvas de nivel cada 10m",4,32310,Vegetación secundaria o transición,VEGSEC,Ql/Kv,Lateritas Formacion Volcanica,3.392126206,-76.58526178,1270.673706,4.419974804,LA FONDA,2622320101,29,8/22/1993 0:00,8/22/1993 0:00,8/22/1993LA FONDA CANTA CLARO,-76.58526178,3.392126206,LA FONDA CANTA CLARO,0,0,5,5,10.1,13.1,95.1,197.1
29,30,4,Riesgo bajo,0 a 3%,"DAPM, curvas de nivel cada 10m",1,11111,Zonas urbanas continuas,ZUC,Qca(RMel),Cono aluvial rio Melendez,3.390070835,-76.55270507,973.3988037,9.958462715,NAPOLES,2622330108,30,2/9/2019 0:00,2/9/2019 0:00,2/9/2019NAPOLES,-76.55270507,3.390070835,NAPOLES,4,27,26.8,36.7,37.2,49,80.8,332.3
30,31,4,Riesgo bajo,0 a 3%,"DAPM, curvas de nivel cada 10m",1,31112,Bosque mixto denso bajo de tierra firme,BNDBAJ,Kv,Formacion Volcanica,3.408660079,-76.56960872,996.5200806,14.39875317,IDEAS,2622330111,31,8/2/2016 0:00,8/2/2016 0:00,8/2/2016IDEAS,-76.56960872,3.408660079,IDEAS,0,0,22.2,23.9,24.1,26.7,139.3,346.8
31,32,7,Amenaza baja,14-25%,"DAPM, curvas de nivel cada 10m",4,23171,Pasto cultivado arbolado,PCUAR,TOf,Formacion Ferreira,3.352528796,-76.5616157,1128.252441,21.77400589,LA RIVERITA,2622310103,32,8/19/2018 0:00,8/19/2018 0:00,8/19/2018LA RIVERITA,-76.5616157,3.352528796,LA RIVERITA,0,0,3.9,3.9,8.8,30,53.9,247.2
32,33,4,Riesgo bajo,14-25%,"DAPM, curvas de nivel cada 10m",4,23170,Pasto cultivado,PCU,Ql/Kv,Lateritas Formacion Volcanica,3.410740381,-76.57907075,1047.14502,17.4618721,IDEAS,2622330111,33,8/7/2016 0:00,8/7/2016 0:00,8/7/2016IDEAS,-76.57907075,3.410740381,IDEAS,1,1,1.2,1.3,25.1,25.4,123.7,272.6
33,34,4,Riesgo bajo,0 a 3%,"DAPM, curvas de nivel cada 10m",1,11111,Zonas urbanas continuas,ZUC,Kv,Formacion Volcanica,3.444607252,-76.5377425,991.2512207,7.668447018,COLEGIO SAN JUAN BOSCO,2622330101,34,1/5/2016 0:00,1/5/2016 0:00,1/5/2016PLANTA RIO CALI,-76.5377425,3.444607252,PLANTA RIO CALI,2,3,7.8,7.8,8.6,14.8,54,91.5
34,35,7,Amenaza baja,14-25%,"DAPM, curvas de nivel cada 10m",4,23170,Pasto cultivado,PCU,TOf,Formacion Ferreira,3.35198815,-76.57332814,1228.610352,41.85974121,LA RIVERITA,2622310103,35,8/24/2018 0:00,8/24/2018 0:00,8/24/2018LA RIVERITA,-76.57332814,3.35198815,LA RIVERITA,1,1,0.9,0.9,4.9,30.8,53.2,135
35,36,4,Riesgo bajo,14-25%,"DAPM, curvas de nivel cada 10m",4,11211,Zonas urbanas discontinuas,ZUD,Kv,Formacion Volcanica,3.442270306,-76.55677103,1141.054199,36.25120544,PLANTA RIO CALI,2622400103,36,1/26/2015 0:00,1/26/2015 0:00,1/26/2015PLANTA RIO CALI,-76.55677103,3.442270306,PLANTA RIO CALI,0,0,16.4,36,93.4,93.6,171,445.4
36,37,4,Riesgo bajo,0 a 3%,"DAPM, curvas de nivel cada 10m",1,12111,Otras superficies artificiales con construcción,OICC,Qca2(RPan),Cono aluvial 2 rio Pance,3.341788887,-76.5955297,1288.595215,41.48134232,PANCE - CHORRERA,2622110103,37,2/20/2018 0:00,2/20/2018 0:00,2/20/2018PANCE - CHORRERA,-76.5955297,3.341788887,PANCE - CHORRERA,0,43,89,91.8,133.6,154,464.2,607.4
37,38,7,Amenaza baja,14-25%,"DAPM, curvas de nivel cada 10m",4,31112,Bosque mixto denso bajo de tierra firme,BNDBAJ,TQj,Formacion Jamundi,3.310077421,-76.5758268,1098.149658,27.02991486,PANCE - CHORRERA,2622110103,38,1/5/2018 0:00,1/5/2018 0:00,1/5/2018PANCE - CHORRERA,-76.5758268,3.310077421,PANCE - CHORRERA,0,19,98.2,131,176,256,551.4,753
38,39,7,Amenaza baja,0 a 3%,"DAPM, curvas de nivel cada 10m",1,23171,Pasto cultivado arbolado,PCUAR,TQj,Formacion Jamundi,3.314028803,-76.55069174,1007.788208,14.78355789,EL PALACIO,2622100102,39,1/31/2016 0:00,1/31/2016 0:00,1/31/2016EL PALACIO,-76.55069174,3.314028803,EL PALACIO,0,30,30,32,32,51,58,192.3
39,40,7,Amenaza baja,0 a 3%,"DAPM, curvas de nivel cada 10m",1,23170,Pasto cultivado,PCU,TQj,Formacion Jamundi,3.306477403,-76.56393857,1010.412231,10.90186024,JAMUNDI,2622100202,40,2/23/2023 0:00,2/23/2023 0:00,2/23/2023EL PALACIO,-76.56393857,3.306477403,EL PALACIO,0,0,12,32,46,47,210,261
40,41,4,Riesgo bajo,14-25%,"DAPM, curvas de nivel cada 10m",4,23170,Pasto cultivado,PCU,Ql/Kv,Lateritas Formacion Volcanica,3.515321101,-76.60481003,1690.444214,24.46246338,AGUACATAL,2622420103,41,1/1/2003 0:00,1/1/2003 0:00,1/1/2003AGUACATAL,-76.60481003,3.515321101,AGUACATAL,0,6,9,17,37,147,242,453
41,42,4,Riesgo bajo,0 a 3%,"DAPM, curvas de nivel cada 10m",1,11111,Zonas urbanas continuas,ZUC,Ql/Kv,Lateritas Formacion Volcanica,3.385949759,-76.55632292,989.3607788,8.260444641,NAPOLES,2622330108,42,2/1/2016 0:00,2/1/2016 0:00,2/1/2016NAPOLES,-76.55632292,3.385949759,NAPOLES,0,0,2.3,13.1,13.1,29.3,39.4,205
42,43,7,Amenaza baja,14-25%,"DAPM, curvas de nivel cada 10m",4,31212,Bosque mixto abierto bajo de tierra firme,BNABAJ,TQj,Formacion Jamundi,3.326272013,-76.55613464,1074.321167,11.50967598,LA RIVERITA,2622310103,43,2/21/2017 0:00,2/21/2017 0:00,2/21/2017LA RIVERITA,-76.55613464,3.326272013,LA RIVERITA,0,4,11.9,51.1,56.9,71.1,223.9,350.3
43,44,4,Riesgo bajo,14-25%,"DAPM, curvas de nivel cada 10m",4,31112,Bosque mixto denso bajo de tierra firme,BNDBAJ,Ql/Kv,Lateritas Formacion Volcanica,3.412648201,-76.5912437,1305.648315,9.960211754,LAS BRISAS,2622330106,44,1/18/2015 0:00,1/18/2015 0:00,1/18/2015LAS BRISAS,-76.5912437,3.412648201,LAS BRISAS,0,0,6,21,24,24,188,630
44,45,7,Amenaza baja,14-25%,"DAPM, curvas de nivel cada 10m",4,31311,Bosque mixto fragmentado con pastos y cultivos,BNFPNC,Qca1(RPan),Cono aluvial 1 rio Pance,3.353312427,-76.54837845,1044.550781,13.03767681,LA RIVERITA,2622310103,45,8/29/2018 0:00,8/29/2018 0:00,8/29/2018LA RIVERITA,-76.54837845,3.353312427,LA RIVERITA,0,0,1,1,1,29.7,53.2,130.3
45,46,4,Riesgo bajo,14-25%,"DAPM, curvas de nivel cada 10m",4,23171,Pasto cultivado arbolado,PCUAR,Ql/Kv,Lateritas Formacion Volcanica,3.516126062,-76.61010633,1779.751709,33.93012619,AGUACATAL,2622420103,46,1/7/2023 0:00,1/7/2023 0:00,1/7/2023AGUACATAL,-76.61010633,3.516126062,AGUACATAL,0,0,0,0,70.2,77.8,278.2,499.4
46,47,7,Amenaza baja,14-25%,"DAPM, curvas de nivel cada 10m",4,31111,Bosque mixto denso alto de tierra firme,BNDALT,Kv,Formacion Volcanica,3.444860678,-76.60115715,1386.967896,18.28783607,YANACONAS,2622410102,47,1/9/2017 0:00,1/9/2017 0:00,1/9/2017YANACONAS,-76.60115715,3.444860678,YANACONAS,3,59,74,74,111,198,428,579
47,48,4,Riesgo bajo,0 a 3%,"DAPM, curvas de nivel cada 10m",1,11111,Zonas urbanas continuas,ZUC,Qal,Depositos aluviales,3.414257973,-76.55738061,978.4386597,13.12144184,IDEAS,2622330111,48,1/30/2019 0:00,1/30/2019 0:00,1/30/2019IDEAS,-76.55738061,3.414257973,IDEAS,0,0,0,0.1,10.7,42.9,99.2,247.7
48,49,4,Riesgo bajo,0 a 3%,"DAPM, curvas de nivel cada 10m",1,11111,Zonas urbanas continuas,ZUC,Ql/Kv,Lateritas Formacion Volcanica,3.386361914,-76.55606088,985.0149536,11.15960884,NAPOLES,2622330108,49,2/14/2016 0:00,2/14/2016 0:00,2/14/2016NAPOLES,-76.55606088,3.386361914,NAPOLES,0,0,0,0,2.3,13.2,39.2,111.7
49,50,4,Riesgo bajo,14-25%,"DAPM, curvas de nivel cada 10m",4,11111,Zonas urbanas continuas,ZUC,Kv,Formacion Volcanica,3.408327368,-76.5748718,1017.619995,14.80475903,IDEAS,2622330111,50,1/28/2019 0:00,1/28/2019 0:00,1/28/2019IDEAS,-76.5748718,3.408327368,IDEAS,0,0,0,4.7,5.1,36.9,111.8,255.4
50,51,4,Riesgo bajo,14-25%,"DAPM, curvas de nivel cada 10m",4,24140,Misceláneo de cultivos y espacios naturales,MSCULV,Kv,Formacion Volcanica,3.380941134,-76.61542634,1641.373657,14.47931862,EL CARMELO,2622320104,51,8/7/2017 0:00,8/7/2017 0:00,8/7/2017EL CARMELO,-76.61542634,3.380941134,EL CARMELO,0,0,0,0,2.8,44.2,239,433.4
51,52,7,Amenaza baja,0 a 3%,"DAPM, curvas de nivel cada 10m",1,41120,Ríos,RIO,Qca2(RPan),Cono aluvial 2 rio Pance,3.315731645,-76.54521058,1003.26886,18.954813,EL PALACIO,2622100102,52,2/2/2017 0:00,2/2/2017 0:00,2/2/2017EL PALACIO,-76.54521058,3.315731645,EL PALACIO,0,0,35,42,42,140,311,417
52,53,7,Amenaza baja,14-25%,"DAPM, curvas de nivel cada 10m",4,31112,Bosque mixto denso bajo de tierra firme,BNDBAJ,Qca1(RPan),Cono aluvial 1 rio Pance,3.363480835,-76.54627453,1012.471741,14.42041779,LA RIVERITA,2622310103,53,8/24/2018 0:00,8/24/2018 0:00,8/24/2018LA RIVERITA,-76.54627453,3.363480835,LA RIVERITA,1,1,0.9,0.9,4.9,30.8,53.2,135
53,54,7,Amenaza baja,14-25%,"DAPM, curvas de nivel cada 10m",4,23171,Pasto cultivado arbolado,PCUAR,TQj,Formacion Jamundi,3.300344691,-76.56886181,1018.263611,49.86513519,JAMUNDI,2622100202,54,1/12/2018 0:00,1/12/2018 0:00,1/12/2018EL PALACIO,-76.56886181,3.300344691,EL PALACIO,20,30,53,53,116,156,460,534
54,55,4,Riesgo bajo,14-25%,"DAPM, curvas de nivel cada 10m",4,23170,Pasto cultivado,PCU,Kv,Formacion Volcanica,3.528949512,-76.61298986,1940.115356,73.80082703,SAN PABLO,2622420102,55,2/2/2016 0:00,2/2/2016 0:00,2/2/2016AGUACATAL,-76.61298986,3.528949512,AGUACATAL,0,0,1.4,1.8,3.8,8,39.4,149.4
55,56,7,Amenaza baja,0 a 3%,"DAPM, curvas de nivel cada 10m",1,31311,Bosque mixto fragmentado con pastos y cultivos,BNFPNC,Qca1(RPan),Cono aluvial 1 rio Pance,3.359886087,-76.554209,1050.448364,10.89566135,LA RIVERITA,2622310103,56,8/27/2018 0:00,8/27/2018 0:00,8/27/2018LA RIVERITA,-76.554209,3.359886087,LA RIVERITA,0,0,1,1,4.9,30.3,53.2,135.1
56,57,4,Riesgo bajo,14-25%,"DAPM, curvas de nivel cada 10m",4,23171,Pasto cultivado arbolado,PCUAR,Ql/Kv,Lateritas Formacion Volcanica,3.522097057,-76.60860143,1810.050293,46.94671631,SAN PABLO,2622420102,57,2/15/2016 0:00,2/15/2016 0:00,2/15/2016AGUACATAL,-76.60860143,3.522097057,AGUACATAL,0,1,1.6,1.6,2.4,6.2,23,119.2
57,58,7,Amenaza baja,0 a 3%,"DAPM, curvas de nivel cada 10m",1,31352,Bosque de guadua,BG,Qca2(RPan),Cono aluvial 2 rio Pance,3.343698639,-76.55279826,1100.737061,11.32210255,LA RIVERITA,2622310103,58,1/12/2019 0:00,1/12/2019 0:00,1/12/2019LA RIVERITA,-76.55279826,3.343698639,LA RIVERITA,0,0,24.5,24.5,34,226.2,366.1,472.5
58,59,7,Amenaza baja,0 a 3%,"DAPM, curvas de nivel cada 10m",1,32211,Arbustal y matorral abierto bajo de tierra firme,ABAFBA,TQj,Formacion Jamundi,3.335927003,-76.56558125,1131.280273,27.80568504,LA RIVERITA,2622310103,59,1/11/2019 0:00,1/11/2019 0:00,1/11/2019LA RIVERITA,-76.56558125,3.335927003,LA RIVERITA,0,6,24.5,24.5,24.5,218.3,366.2,472.5
59,60,4,Riesgo bajo,14-25%,"DAPM, curvas de nivel cada 10m",4,23172,Pasto cultivado enmalezado,PCURA,Kv,Formacion Volcanica,3.430975679,-76.55170339,1058.733154,28.83691978,PLANTA RIO CALI,2622400103,60,1/5/2016 0:00,1/5/2016 0:00,1/5/2016PLANTA RIO CALI,-76.55170339,3.430975679,PLANTA RIO CALI,2,3,7.8,7.8,8.6,14.8,54,91.5
60,61,7,Amenaza baja,0 a 3%,"DAPM, curvas de nivel cada 10m",1,23170,Pasto cultivado,PCU,Kv,Formacion Volcanica,3.448980904,-76.57464588,1097.686646,9.368485451,CALI - BOCATOMA,2622400106,61,1/18/2018 0:00,1/18/2018 0:00,1/18/2018CALI - BOCATOMA,-76.57464588,3.448980904,CALI - BOCATOMA,0,7,35.4,35.4,38.6,184,259.6,535.4
61,62,4,Riesgo bajo,0 a 3%,"DAPM, curvas de nivel cada 10m",1,11111,Zonas urbanas continuas,ZUC,Qca(RMel),Cono aluvial rio Melendez,3.387737621,-76.55152837,976.8043823,7.293067932,NAPOLES,2622330108,62,1/4/2017 0:00,1/4/2017 0:00,1/4/2017NAPOLES,-76.55152837,3.387737621,NAPOLES,0,0,30.9,31,50.7,123.8,219.3,331.5
62,63,4,Riesgo bajo,0 a 3%,"DAPM, curvas de nivel cada 10m",1,11111,Zonas urbanas continuas,ZUC,Qca(RMel),Cono aluvial rio Melendez,3.389446229,-76.55503609,976.5458984,2.758006096,NAPOLES,2622330108,63,1/24/2018 0:00,1/24/2018 0:00,1/24/2018NAPOLES,-76.55503609,3.389446229,NAPOLES,0,1,1.3,27.8,45.4,215.3,394,536.5
63,64,7,Amenaza baja,0 a 3%,"DAPM, curvas de nivel cada 10m",1,32211,Arbustal y matorral abierto bajo de tierra firme,ABAFBA,TQj,Formacion Jamundi,3.322134304,-76.55358564,1027.085571,19.95045853,LA RIVERITA,2622310103,64,1/11/2019 0:00,1/11/2019 0:00,1/11/2019LA RIVERITA,-76.55358564,3.322134304,LA RIVERITA,0,6,24.5,24.5,24.5,218.3,366.2,472.5
64,65,4,Riesgo bajo,0 a 3%,"DAPM, curvas de nivel cada 10m",1,11111,Zonas urbanas continuas,ZUC,Qca,Conos aluviales,3.461291024,-76.53278929,984.7529907,4.620991707,COLEGIO SAN LUIS,2622400101,65,1/31/2015 0:00,1/31/2015 0:00,1/31/2015COLEGIO SAN LUIS,-76.53278929,3.461291024,COLEGIO SAN LUIS,0,0,0,0,0,0,17.4,44
65,66,4,Riesgo bajo,14-25%,"DAPM, curvas de nivel cada 10m",4,11111,Zonas urbanas continuas,ZUC,Ql/Kv,Lateritas Formacion Volcanica,3.490205375,-76.60580079,1647.767334,25.49999237,AGUACATAL,2622420103,66,1/14/2003 0:00,1/14/2003 0:00,1/14/2003AGUACATAL,-76.60580079,3.490205375,AGUACATAL,0,0,0,0,0,68,182,381
66,67,7,Amenaza baja,0 a 3%,"DAPM, curvas de nivel cada 10m",1,23171,Pasto cultivado arbolado,PCUAR,TQj,Formacion Jamundi,3.327366184,-76.55361405,1036.990967,7.118861198,LA RIVERITA,2622310103,67,8/24/2017 0:00,8/24/2017 0:00,8/24/2017LA RIVERITA,-76.55361405,3.327366184,LA RIVERITA,1,1,22.5,49.2,80.6,80.6,154.8,262.2
67,68,7,Amenaza baja,0 a 3%,"DAPM, curvas de nivel cada 10m",1,23172,Pasto cultivado enmalezado,PCURA,TQj,Formacion Jamundi,3.307042979,-76.55645532,997.4215698,9.74136734,EL PALACIO,2622100102,68,1/1/2003 0:00,1/1/2003 0:00,1/1/2003EL PALACIO,-76.55645532,3.307042979,EL PALACIO,0,0,8,12,17,162,244,499
68,69,4,Riesgo bajo,14-25%,"DAPM, curvas de nivel cada 10m",4,23170,Pasto cultivado,PCU,Kv,Formacion Volcanica,3.531663593,-76.61157135,1975.087036,41.42612457,SAN PABLO,2622420102,69,2/27/2018 0:00,2/27/2018 0:00,2/27/2018AGUACATAL,-76.61157135,3.531663593,AGUACATAL,0,0,8.6,13.8,27,27,55.2,150
69,70,7,Amenaza baja,14-25%,"DAPM, curvas de nivel cada 10m",4,32310,Vegetación secundaria o transición,VEGSEC,Kv,Formacion Volcanica,3.430642662,-76.55487077,1121.72583,27.09260368,LOS CRISTALES,2622330105,70,1/19/2016 0:00,1/19/2016 0:00,1/19/2016LOS CRISTALES,-76.55487077,3.430642662,LOS CRISTALES,0,0,0,0,22,22,58,204
70,71,4,Riesgo bajo,0 a 3%,"DAPM, curvas de nivel cada 10m",1,12111,Otras superficies artificiales con construcción,OICC,Qd,Derrubios,3.340979647,-76.59688262,1300.178345,5.819188595,PANCE - CHORRERA,2622110103,71,2/24/2013 0:00,2/24/2013 0:00,2/24/2013PANCE - CHORRERA,-76.59688262,3.340979647,PANCE - CHORRERA,1,35,39.2,69.4,86.2,183.4,231.6,449.2
71,72,7,Amenaza baja,14-25%,"DAPM, curvas de nivel cada 10m",4,23172,Pasto cultivado enmalezado,PCURA,TQj,Formacion Jamundi,3.318338275,-76.57239743,1169.328491,16.88601875,PANCE - CHORRERA,2622110103,72,1/8/2020 0:00,1/8/2020 0:00,1/8/2020PANCE - CHORRERA,-76.57239743,3.318338275,PANCE - CHORRERA,0,0,0,135.6,156.4,307.2,601,646.4
72,73,7,Amenaza baja,14-25%,"DAPM, curvas de nivel cada 10m",4,23170,Pasto cultivado,PCU,TQj,Formacion Jamundi,3.322764463,-76.55730147,1072.46582,19.99803352,LA RIVERITA,2622310103,73,3/5/2017 0:00,3/5/2017 0:00,3/5/2017LA RIVERITA,-76.55730147,3.322764463,LA RIVERITA,2,11,48.5,52.2,57,110.3,240.1,370.4
73,74,7,Amenaza baja,0 a 3%,"DAPM, curvas de nivel cada 10m",1,23171,Pasto cultivado arbolado,PCUAR,Qca2(RPan),Cono aluvial 2 rio Pance,3.316802037,-76.54932563,1013.433044,19.73988914,EL PALACIO,2622100102,74,1/26/2018 0:00,1/26/2018 0:00,1/26/2018EL PALACIO,-76.54932563,3.316802037,EL PALACIO,0,0,6,10,58,157,236,572
74,75,4,Riesgo bajo,14-25%,"DAPM, curvas de nivel cada 10m",4,11111,Zonas urbanas continuas,ZUC,Ql/Kv,Lateritas Formacion Volcanica,3.374270845,-76.55369883,1039.493896,13.04127598,NAPOLES,2622330108,75,2/7/2018 0:00,2/7/2018 0:00,2/7/2018NAPOLES,-76.55369883,3.374270845,NAPOLES,0,0,32.9,32.9,47.3,110.6,381.3,494.2
75,76,4,Riesgo bajo,0 a 3%,"DAPM, curvas de nivel cada 10m",1,11111,Zonas urbanas continuas,ZUC,Qal,Depositos aluviales,3.411526056,-76.55691272,977.5150757,6.26645422,IDEAS,2622330111,76,2/9/2018 0:00,2/9/2018 0:00,2/9/2018IDEAS,-76.55691272,3.411526056,IDEAS,0,3,2.6,20.9,49.2,87.8,242.6,326.6
76,77,4,Riesgo bajo,14-25%,"DAPM, curvas de nivel cada 10m",4,11111,Zonas urbanas continuas,ZUC,Kv,Formacion Volcanica,3.45081465,-76.5496602,1054.747803,17.7989006,EL ANCLA,2622420106,77,2/17/2019 0:00,2/17/2019 0:00,2/17/2019EL ANCLA,-76.5496602,3.45081465,EL ANCLA,0,0,39.2,56,56,111.3,195.9,540.6
77,78,4,Riesgo bajo,0 a 3%,"DAPM, curvas de nivel cada 10m",1,11211,Zonas urbanas discontinuas,ZUD,TOg,Formacion Guachinte,3.368238656,-76.5683381,1102.639771,46.22639847,LA RIVERITA,2622310103,78,2/25/2019 0:00,2/25/2019 0:00,2/25/2019LA RIVERITA,-76.5683381,3.368238656,LA RIVERITA,0,5,31.6,52.6,86.8,133.6,334.4,499
78,79,4,Riesgo bajo,0 a 3%,"DAPM, curvas de nivel cada 10m",1,11111,Zonas urbanas continuas,ZUC,Kv,Formacion Volcanica,3.453125534,-76.5593546,1150.274658,24.69631958,EL COLEGIO,2622420105,79,2/7/2016 0:00,2/7/2016 0:00,2/7/2016EL COLEGIO,-76.5593546,3.453125534,EL COLEGIO,0,0,0.5,6.5,7.1,37.7,56.8,137.5
79,80,7,Amenaza baja,0 a 3%,"DAPM, curvas de nivel cada 10m",1,23170,Pasto cultivado,PCU,TQj,Formacion Jamundi,3.313255655,-76.55507046,1064.966064,33.6162262,EL PALACIO,2622100102,80,1/28/2016 0:00,1/28/2016 0:00,1/28/2016EL PALACIO,-76.55507046,3.313255655,EL PALACIO,0,0,2,2,32,55,28,234.3
80,81,4,Riesgo bajo,0 a 3%,"DAPM, curvas de nivel cada 10m",1,11211,Zonas urbanas discontinuas,ZUD,Ql/Kv,Lateritas Formacion Volcanica,3.368695111,-76.56389755,1067.862915,27.10965919,LA RIVERITA,2622310103,81,5/29/2017 0:00,5/29/2017 0:00,5/29/2017LA RIVERITA,-76.56389755,3.368695111,LA RIVERITA,0,0,1.2,10.4,56.6,262.2,484.8,706.8
81,82,7,Amenaza baja,14-25%,"DAPM, curvas de nivel cada 10m",4,23171,Pasto cultivado arbolado,PCUAR,TQj,Formacion Jamundi,3.309315631,-76.57143223,1094.26001,6.395744801,PANCE - CHORRERA,2622110103,82,5/20/2016 0:00,5/20/2016 0:00,5/20/2016PANCE - CHORRERA,-76.57143223,3.309315631,PANCE - CHORRERA,0,1,7.8,8,63.2,253,400.8,669.2
82,83,4,Riesgo bajo,0 a 3%,"DAPM, curvas de nivel cada 10m",1,11111,Zonas urbanas continuas,ZUC,Qca(RMel),Cono aluvial rio Melendez,3.408871462,-76.55581053,975.4558105,9.951165199,IDEAS,2622330111,83,8/19/2018 0:00,8/19/2018 0:00,8/19/2018IDEAS,-76.55581053,3.408871462,IDEAS,0,0,2,2,2.6,24.8,66.7,196.8
83,84,4,Riesgo bajo,0 a 3%,"DAPM, curvas de nivel cada 10m",1,24130,Misceláneo de pastos y cultivos,MSPNCU,Ql/Kv,Lateritas Formacion Volcanica,3.433019971,-76.60912314,1656.984497,28.73433495,PICHINDE,2622400108,84,5/14/2015 0:00,5/14/2015 0:00,5/14/2015PICHINDE,-76.60912314,3.433019971,PICHINDE,9,9,19.8,82.2,120.4,302.6,505.8,628.8
84,85,4,Riesgo bajo,14-25%,"DAPM, curvas de nivel cada 10m",4,23170,Pasto cultivado,PCU,Ql/Kv,Lateritas Formacion Volcanica,3.395442766,-76.57608722,1257.286743,13.98326778,LA FONDA,2622320101,85,8/27/1993 0:00,8/27/1993 0:00,8/27/1993LA FONDA CANTA CLARO,-76.57608722,3.395442766,LA FONDA CANTA CLARO,3,22,27,27,32,37.1,109.1,145.1
85,86,4,Riesgo bajo,14-25%,"DAPM, curvas de nivel cada 10m",4,23170,Pasto cultivado,PCU,Ql/Kv,Lateritas Formacion Volcanica,3.393872616,-76.57569691,1271.620117,29.46711731,LA FONDA,2622320101,86,5/8/2018 0:00,5/8/2018 0:00,5/8/2018LA FONDA CANTA CLARO,-76.57569691,3.393872616,LA FONDA CANTA CLARO,10,50,53,80,119,265,478,557
86,87,7,Amenaza baja,0 a 3%,"DAPM, curvas de nivel cada 10m",1,31331,Bosque mixto fragmentado con vegetación natural,BNFVN,TQj,Formacion Jamundi,3.336240497,-76.55750065,1079.523193,35.66748047,LA RIVERITA,2622310103,87,5/31/2017 0:00,5/31/2017 0:00,5/31/2017LA RIVERITA,-76.55750065,3.336240497,LA RIVERITA,0,0,1.3,2.1,10.5,230.7,471.1,690.3
87,88,4,Riesgo bajo,14-25%,"DAPM, curvas de nivel cada 10m",4,24140,Misceláneo de cultivos y espacios naturales,MSCULV,Ql/Kv,Lateritas Formacion Volcanica,3.408973195,-76.58929642,1251.703491,16.0185318,LAS BRISAS,2622330106,88,5/25/2016 0:00,5/25/2016 0:00,5/25/2016LAS BRISAS,-76.58929642,3.408973195,LAS BRISAS,0,0,2,32,63,319,645,869
88,89,7,Amenaza baja,0 a 3%,"DAPM, curvas de nivel cada 10m",1,31211,Bosque mixto abierto alto de tierra firme,BNAALT,TQj,Formacion Jamundi,3.331109852,-76.55943414,1056.328735,8.801847458,LA RIVERITA,2622310103,89,5/17/2017 0:00,5/17/2017 0:00,5/17/2017LA RIVERITA,-76.55943414,3.331109852,LA RIVERITA,0,46,88.4,128.9,220.1,334.1,562.8,729.9
89,90,4,Riesgo bajo,14-25%,"DAPM, curvas de nivel cada 10m",4,23171,Pasto cultivado arbolado,PCUAR,Ql/Kv,Lateritas Formacion Volcanica,3.489269332,-76.60557342,1645.908081,22.26234627,AGUACATAL,2622420103,90,5/12/2016 0:00,5/12/2016 0:00,5/12/2016AGUACATAL,-76.60557342,3.489269332,AGUACATAL,0,26,53.4,54,71,103.8,275.8,378.8
90,91,4,Riesgo bajo,14-25%,"DAPM, curvas de nivel cada 10m",4,11111,Zonas urbanas continuas,ZUC,TOg,Formacion Guachinte,3.471435804,-76.53146208,987.7271118,25.7742939,COLEGIO SAN LUIS,2622400101,91,5/18/2012 0:00,5/18/2012 0:00,5/18/2012COLEGIO SAN LUIS,-76.53146208,3.471435804,COLEGIO SAN LUIS,0,0,0,0,67,207,367,402
91,92,7,Amenaza baja,14-25%,"DAPM, curvas de nivel cada 10m",4,31311,Bosque mixto fragmentado con pastos y cultivos,BNFPNC,Qca1(RPan),Cono aluvial 1 rio Pance,3.356433062,-76.5512939,1062.026245,9.081903458,LA RIVERITA,2622310103,92,5/20/2017 0:00,5/20/2017 0:00,5/20/2017LA RIVERITA,-76.5512939,3.356433062,LA RIVERITA,0,0,48.1,88.6,163.4,304.6,533,722.6
92,93,7,Amenaza baja,14-25%,"DAPM, curvas de nivel cada 10m",4,23171,Pasto cultivado arbolado,PCUAR,TQj,Formacion Jamundi,3.308278298,-76.56865334,1077.38623,6.693911552,JAMUNDI,2622100202,93,5/6/2012 0:00,5/6/2012 0:00,5/6/2012EL PALACIO,-76.56865334,3.308278298,EL PALACIO,2,8,55,66,106,268,426,682
93,94,7,Amenaza baja,14-25%,"DAPM, curvas de nivel cada 10m",4,23170,Pasto cultivado,PCU,TQj,Formacion Jamundi,3.294239193,-76.55654762,1017.993591,15.59278393,JAMUNDI,2622100202,94,5/25/2016 0:00,5/25/2016 0:00,5/25/2016EL PALACIO,-76.55654762,3.294239193,EL PALACIO,1,34,35,35,38,225,405,618
94,95,4,Riesgo bajo,0 a 3%,"DAPM, curvas de nivel cada 10m",1,32310,Vegetación secundaria o transición,VEGSEC,TOg,Formacion Guachinte,3.370553908,-76.570212,1088.329102,11.07740211,LA RIVERITA,2622310103,95,2/7/2017 0:00,2/7/2017 0:00,2/7/2017LA RIVERITA,-76.570212,3.370553908,LA RIVERITA,0,1,0.9,14,14.2,64.7,222.4,0
95,96,7,Amenaza baja,14-25%,"DAPM, curvas de nivel cada 10m",4,23171,Pasto cultivado arbolado,PCUAR,TQj,Formacion Jamundi,3.308391765,-76.57294769,1078.043335,8.636368752,PANCE - CHORRERA,2622110103,96,3/15/2013 0:00,3/15/2013 0:00,3/15/2013PANCE - CHORRERA,-76.57294769,3.308391765,PANCE - CHORRERA,7,89,112.8,113.2,125.8,215.2,374,430
96,97,4,Riesgo bajo,0 a 3%,"DAPM, curvas de nivel cada 10m",1,11211,Zonas urbanas discontinuas,ZUD,Qca1(RPan),Cono aluvial 1 rio Pance,3.36230747,-76.55820083,1041.484009,6.249706745,LA RIVERITA,2622310103,97,2/27/2019 0:00,2/27/2019 0:00,2/27/2019LA RIVERITA,-76.55820193,3.36230747,LA RIVERITA,4,35,40.3,66.4,87.4,137.5,358.4,533.8
97,98,7,Amenaza baja,14-25%,"DAPM, curvas de nivel cada 10m",4,23171,Pasto cultivado arbolado,PCUAR,TQj,Formacion Jamundi,3.315776409,-76.55754464,1106.887817,33.56287766,EL PALACIO,2622100102,98,5/7/2015 0:00,5/7/2015 0:00,5/7/2015EL PALACIO,-76.55754464,3.315776409,EL PALACIO,0,0,24,24,24,265,541,687
98,99,4,Riesgo bajo,0 a 3%,"DAPM, curvas de nivel cada 10m",1,11111,Zonas urbanas continuas,ZUC,Qca(RMel),Cono aluvial rio Melendez,3.416890487,-76.55485253,976.8823853,1.231034875,IDEAS,2622330111,99,2/17/2019 0:00,2/17/2019 0:00,2/17/2019IDEAS,-76.55485253,3.416890487,IDEAS,0,45,47.7,75.9,105,130,155.2,311.2
99,100,4,Riesgo bajo,14-25%,"DAPM, curvas de nivel cada 10m",4,11111,Zonas urbanas continuas,ZUC,Ql/Kv,Lateritas Formacion Volcanica,3.439165705,-76.61628906,1646.212402,15.55436039,PICHINDE,2622400108,100,1/31/2018 0:00,1/31/2018 0:00,1/31/2018PICHINDE,-76.61628906,3.439165705,PICHINDE,0,0,0,5.2,27,86.6,268.6,436.4
100,101,4,Riesgo bajo,0 a 3%,"DAPM, curvas de nivel cada 10m",1,11111,Zonas urbanas continuas,ZUC,TOg,Formacion Guachinte,3.488869852,-76.52815392,1002.20575,6.230312824,AGUACATAL-MONTEBELLO,2622420101,101,5/8/2015 0:00,5/8/2015 0:00,5/8/2015AGUACATAL-MONTEBELLO,-76.52815392,3.488869852,AGUACATAL-MONTEBELLO,0,14,82,82,89,201,302,377
101,102,4,Riesgo bajo,0 a 3%,"DAPM, curvas de nivel cada 10m",1,12211,Otras superficies artificiales sin construcción,OISC,Kv,Formacion Volcanica,3.431974603,-76.55015292,1062.686646,3.882275581,PLANTA RIO CALI,2622400103,102,5/16/2017 0:00,5/16/2017 0:00,5/16/2017PLANTA RIO CALI,-76.55015292,3.431974603,PLANTA RIO CALI,1,13,42.6,79.3,89.3,167,240.4,283.8
102,103,7,Amenaza baja,14-25%,"DAPM, curvas de nivel cada 10m",4,23172,Pasto cultivado enmalezado,PCURA,TQj,Formacion Jamundi,3.32403815,-76.56628854,1171.020264,5.274658203,LA RIVERITA,2622310103,103,1/4/2018 0:00,1/4/2018 0:00,1/4/2018LA RIVERITA,-76.56628854,3.32403815,LA RIVERITA,1,15,105.5,135.4,203.4,231.2,489.1,641.1
103,104,7,Amenaza baja,0 a 3%,"DAPM, curvas de nivel cada 10m",1,31311,Bosque mixto fragmentado con pastos y cultivos,BNFPNC,Ql/Kv,Lateritas Formacion Volcanica,3.365436477,-76.55629131,1074.32019,27.4009304,LA RIVERITA,2622310103,104,1/5/2018 0:00,1/5/2018 0:00,1/5/2018LA RIVERITA,-76.55629131,3.365436477,LA RIVERITA,0,16,94.8,135.4,214.9,240.7,485,640.5
104,105,4,Riesgo bajo,14-25%,"DAPM, curvas de nivel cada 10m",4,11111,Zonas urbanas continuas,ZUC,Kv,Formacion Volcanica,3.476067747,-76.55385398,1175.972168,32.36522293,AGUACATAL-MONTEBELLO,2622420101,105,5/8/2013 0:00,5/8/2013 0:00,5/8/2013AGUACATAL-MONTEBELLO,-76.55385398,3.476067747,AGUACATAL-MONTEBELLO,0,17,44,68,92,183,237,285
105,106,7,Amenaza baja,14-25%,"DAPM, curvas de nivel cada 10m",4,23172,Pasto cultivado enmalezado,PCURA,Ql/Kv,Lateritas Formacion Volcanica,3.369417601,-76.55176654,1083.828613,18.93263054,LA RIVERITA,2622310103,106,1/5/2018 0:00,1/5/2018 0:00,1/5/2018LA RIVERITA,-76.55176654,3.369417601,LA RIVERITA,0,16,94.8,135.4,214.9,240.7,485,640.5
106,107,4,Riesgo bajo,14-25%,"DAPM, curvas de nivel cada 10m",4,11111,Zonas urbanas continuas,ZUC,Ql/Kv,Lateritas Formacion Volcanica,3.482543572,-76.60664749,1692.452515,19.33083153,AGUACATAL,2622420103,107,5/13/2016 0:00,5/13/2016 0:00,5/13/2016AGUACATAL,-76.60664749,3.482543572,AGUACATAL,1,1,45,54.6,75.2,107,273,378.8
107,108,4,Riesgo bajo,14-25%,"DAPM, curvas de nivel cada 10m",4,23171,Pasto cultivado arbolado,PCUAR,Ql/Kv,Lateritas Formacion Volcanica,3.489295615,-76.60549781,1644.266846,22.83409691,AGUACATAL,2622420103,108,5/6/2018 0:00,5/6/2018 0:00,5/6/2018AGUACATAL,-76.60549781,3.489295615,AGUACATAL,0,0,0.2,31.4,32.8,98.4,181,222.8
108,109,7,Amenaza baja,14-25%,"DAPM, curvas de nivel cada 10m",4,33130,Helechal,HELECH,TQj,Formacion Jamundi,3.340096348,-76.55918551,1152.172485,18.18244934,LA RIVERITA,2622310103,109,5/18/2017 0:00,5/18/2017 0:00,5/18/2017LA RIVERITA,-76.55918551,3.340096348,LA RIVERITA,0,23,57.7,123.7,210.4,314.1,541.5,722.4
109,110,4,Riesgo bajo,14-25%,"DAPM, curvas de nivel cada 10m",4,11111,Zonas urbanas continuas,ZUC,Qca1(RPan),Cono aluvial 1 rio Pance,3.356328968,-76.54650388,1034.692505,7.757536411,LA RIVERITA,2622310103,110,5/20/2017 0:00,5/20/2017 0:00,5/20/2017LA RIVERITA,-76.54650388,3.356328968,LA RIVERITA,0,0,48.1,88.6,163.4,304.6,533,722.6
110,111,4,Riesgo bajo,14-25%,"DAPM, curvas de nivel cada 10m",4,31111,Bosque mixto denso alto de tierra firme,BNDALT,Ql/Kv,Lateritas Formacion Volcanica,3.498252756,-76.60673163,1636.703613,24.83427238,AGUACATAL,2622420103,111,5/5/2018 0:00,5/5/2018 0:00,5/5/2018AGUACATAL,-76.60673163,3.498252756,AGUACATAL,0,0,20,31.4,32.8,98.8,194.2,222.8
111,112,7,Amenaza baja,14-25%,"DAPM, curvas de nivel cada 10m",4,31111,Bosque mixto denso alto de tierra firme,BNDALT,Kv,Formacion Volcanica,3.371027317,-76.60496725,1720.53894,50.29825592,LILI - SAN SEBASTIAN,2622310201,112,5/12/2019 0:00,5/12/2019 0:00,5/12/2019LILI - SAN SEBASTIAN,-76.60496725,3.371027317,LILI - SAN SEBASTIAN,0,1,29.6,40,41.6,147.2,327.4,406.8
112,113,7,Amenaza baja,0 a 3%,"DAPM, curvas de nivel cada 10m",1,23171,Pasto cultivado arbolado,PCUAR,TQj,Formacion Jamundi,3.340258727,-76.57080615,1193.264893,10.30497646,LA RIVERITA,2622310103,113,2/25/2017 0:00,2/25/2017 0:00,2/25/2017LA RIVERITA,-76.57080615,3.340258727,LA RIVERITA,4,4,8.2,15.7,59.3,74.9,212.3,343.9
113,114,7,Amenaza baja,0 a 3%,"DAPM, curvas de nivel cada 10m",1,23172,Pasto cultivado enmalezado,PCURA,TQj,Formacion Jamundi,3.317031251,-76.57118308,1174.655396,54.9305954,PANCE - CHORRERA,2622110103,114,5/10/2015 0:00,5/10/2015 0:00,5/10/2015PANCE - CHORRERA,-76.57118308,3.317031251,PANCE - CHORRERA,0,1,4.2,33.8,39,216.2,547.4,646.6
114,115,7,Amenaza baja,14-25%,"DAPM, curvas de nivel cada 10m",4,31311,Bosque mixto fragmentado con pastos y cultivos,BNFPNC,TOf,Formacion Ferreira,3.353898112,-76.55964123,1108.37793,5.722303391,LA RIVERITA,2622310103,115,5/11/2018 0:00,5/11/2018 0:00,5/11/2018LA RIVERITA,-76.55964123,3.353898112,LA RIVERITA,0,0,113.1,113.1,137.6,227.3,291.3,563.2
115,116,4,Riesgo bajo,0 a 3%,"DAPM, curvas de nivel cada 10m",1,11111,Zonas urbanas continuas,ZUC,Kv,Formacion Volcanica,3.456478847,-76.56965788,1083.759521,11.35223293,CALI - BOCATOMA,2622400106,116,5/22/2019 0:00,5/22/2019 0:00,5/22/2019CALI - BOCATOMA,-76.56965788,3.456478847,CALI - BOCATOMA,2,28,27.6,27.6,95.2,95.2,395.8,450.8
116,117,7,Amenaza baja,14-25%,"DAPM, curvas de nivel cada 10m",4,23172,Pasto cultivado enmalezado,PCURA,TOf,Formacion Ferreira,3.365344803,-76.56687273,1061.876465,23.10965157,LA RIVERITA,2622310103,117,8/30/2018 0:00,8/30/2018 0:00,8/30/2018LA RIVERITA,-76.56687273,3.365344803,LA RIVERITA,0,0,1,1,4.2,32.9,53.2,130.1
117,118,7,Amenaza baja,14-25%,"DAPM, curvas de nivel cada 10m",4,31111,Bosque mixto denso alto de tierra firme,BNDALT,Ql/Kv,Lateritas Formacion Volcanica,3.371753816,-76.56071235,1065.332153,32.67051697,LA RIVERITA,2622310103,118,5/28/2018 0:00,5/28/2018 0:00,5/28/2018LA RIVERITA,-76.56071235,3.371753816,LA RIVERITA,2,25,42.5,47.3,154.4,244.4,300.9,602.3
118,119,4,Riesgo bajo,14-25%,"DAPM, curvas de nivel cada 10m",4,11111,Zonas urbanas continuas,ZUC,Kv,Formacion Volcanica,3.441986989,-76.54770816,1029.955933,11.42929649,PLANTA RIO CALI,2622400103,119,5/14/2003 0:00,5/14/2003 0:00,5/14/2003PLANTA RIO CALI,-76.54770816,3.441986989,PLANTA RIO CALI,0,73,77,80,82,239,408,507
119,120,7,Amenaza baja,0 a 3%,"DAPM, curvas de nivel cada 10m",1,41120,Ríos,RIO,Qca2(RPan),Cono aluvial 2 rio Pance,3.320325352,-76.5486601,1015.538818,10.92916393,EL PALACIO,2622100102,120,5/3/2015 0:00,5/3/2015 0:00,5/3/2015EL PALACIO,-76.5486601,3.320325352,EL PALACIO,6,14,14,14,71,307,538,687
120,121,4,Riesgo bajo,14-25%,"DAPM, curvas de nivel cada 10m",4,11211,Zonas urbanas discontinuas,ZUD,Kv,Formacion Volcanica,3.468331185,-76.6244596,1713.50647,19.3098259,FELIDIA,2622400107,121,7/16/2018 0:00,7/16/2018 0:00,7/16/2018FELIDIA,-76.6244596,3.468331185,FELIDIA,0,5,4.8,4.8,44,63,357.4,502.6
121,122,4,Riesgo bajo,14-25%,"DAPM, curvas de nivel cada 10m",4,11211,Zonas urbanas discontinuas,ZUD,Kv,Formacion Volcanica,3.473406751,-76.61153517,1603.14563,26.55098724,FELIDIA,2622400107,122,7/17/2018 0:00,7/17/2018 0:00,7/17/2018FELIDIA,-76.61153517,3.473406751,FELIDIA,0,5,4.8,4.8,44,62.4,356.8,502.2
122,123,7,Amenaza baja,0 a 3%,"DAPM, curvas de nivel cada 10m",1,23171,Pasto cultivado arbolado,PCUAR,Qca2(RPan),Cono aluvial 2 rio Pance,3.318286411,-76.54744431,1012.49292,3.488126755,EL PALACIO,2622100102,123,7/25/2016 0:00,7/25/2016 0:00,7/25/2016EL PALACIO,-76.54744431,3.318286411,EL PALACIO,0,3,13,19,25,61,160,368
123,124,7,Amenaza baja,14-25%,"DAPM, curvas de nivel cada 10m",4,31212,Bosque mixto abierto bajo de tierra firme,BNABAJ,TQj,Formacion Jamundi,3.295478895,-76.55796201,1004.905029,29.22118759,JAMUNDI,2622100202,124,7/22/2019 0:00,7/22/2019 0:00,7/22/2019EL PALACIO,-76.55796201,3.295478895,EL PALACIO,0,8,8,9,9,96,234,410.6
124,125,7,Amenaza baja,14-25%,"DAPM, curvas de nivel cada 10m",4,31311,Bosque mixto fragmentado con pastos y cultivos,BNFPNC,TOf,Formacion Ferreira,3.364565923,-76.5663577,1059.622437,0.984309137,LA RIVERITA,2622310103,125,7/18/2019 0:00,7/18/2019 0:00,7/18/2019LA RIVERITA,-76.5663577,3.364565923,LA RIVERITA,0,0,10.5,10.6,22.8,116.3,333.6,475.6
125,126,7,Amenaza baja,0 a 3%,"DAPM, curvas de nivel cada 10m",1,23171,Pasto cultivado arbolado,PCUAR,Qca2(RPan),Cono aluvial 2 rio Pance,3.313561109,-76.54610089,1005.150208,6.622712612,EL PALACIO,2622100102,126,7/27/2006 0:00,7/27/2006 0:00,7/27/2006EL PALACIO,-76.54610089,3.313561109,EL PALACIO,5,52,54,54,54,67,250,413
126,127,4,Riesgo bajo,14-25%,"DAPM, curvas de nivel cada 10m",4,31311,Bosque mixto fragmentado con pastos y cultivos,BNFPNC,Ql/Kv,Lateritas Formacion Volcanica,3.374902071,-76.59321885,1445.801025,23.76449966,LILI - SAN SEBASTIAN,2622310201,127,7/28/2004 0:00,7/28/2004 0:00,7/28/2004LILI - SAN SEBASTIAN,-76.59321885,3.374902071,LILI - SAN SEBASTIAN,0,54,62,79,79,133,175,479
127,128,7,Amenaza baja,0 a 3%,"DAPM, curvas de nivel cada 10m",1,32110,Arbustal y matorral denso alto de tierra firme,ABDALT,TQj,Formacion Jamundi,3.329410472,-76.56008189,1066.048828,11.22767544,LA RIVERITA,2622310103,128,7/25/2018 0:00,7/25/2018 0:00,7/25/2018LA RIVERITA,-76.56008189,3.329410472,LA RIVERITA,0,16,16.6,16.7,21.2,42.9,98.3,337.1
128,129,7,Amenaza baja,14-25%,"DAPM, curvas de nivel cada 10m",4,32310,Vegetación secundaria o transición,VEGSEC,Kv,Formacion Volcanica,3.432978501,-76.55430983,1123.33252,21.8969059,PLANTA RIO CALI,2622400103,129,7/10/2015 0:00,7/10/2015 0:00,7/10/2015PLANTA RIO CALI,-76.55430983,3.432978501,PLANTA RIO CALI,0,4,4,4,4,4,55.2,241
129,130,7,Amenaza baja,0 a 3%,"DAPM, curvas de nivel cada 10m",1,12111,Otras superficies artificiales con construcción,OICC,Qca2(RPan),Cono aluvial 2 rio Pance,3.337735243,-76.55181357,1068.793579,15.21018791,LA RIVERITA,2622310103,130,7/30/2017 0:00,7/30/2017 0:00,7/30/2017LA RIVERITA,-76.55181357,3.337735243,LA RIVERITA,0,0,0,0,47.1,53.9,181.4,412.1
130,131,7,Amenaza baja,14-25%,"DAPM, curvas de nivel cada 10m",4,23172,Pasto cultivado enmalezado,PCURA,TQj,Formacion Jamundi,3.323203336,-76.56667702,1173.279907,14.10933781,LA RIVERITA,2622310103,131,7/5/2017 0:00,7/5/2017 0:00,7/5/2017LA RIVERITA,-76.56667702,3.323203336,LA RIVERITA,0,1,7.2,21.1,23.1,128.3,292.7,599.4
131,132,4,Riesgo bajo,0 a 3%,"DAPM, curvas de nivel cada 10m",1,11111,Zonas urbanas continuas,ZUC,Qca(RMel),Cono aluvial rio Melendez,3.391198824,-76.55241561,972.6126099,7.634084225,NAPOLES,2622330108,132,7/22/2018 0:00,7/22/2018 0:00,7/22/2018NAPOLES,-76.55241561,3.391198824,NAPOLES,0,0,0,0,51.4,96,167.1,308.4
132,133,7,Amenaza baja,14-25%,"DAPM, curvas de nivel cada 10m",4,31111,Bosque mixto denso alto de tierra firme,BNDALT,TQj,Formacion Jamundi,3.34379192,-76.56297322,1161.345825,6.662359238,LA RIVERITA,2622310103,133,7/13/2018 0:00,7/13/2018 0:00,7/13/2018LA RIVERITA,-76.56297322,3.34379192,LA RIVERITA,0,0,2.4,2.4,9.9,23.3,208.2,353.9
133,134,4,Riesgo bajo,14-25%,"DAPM, curvas de nivel cada 10m",4,32310,Vegetación secundaria o transición,VEGSEC,Ql/Kv,Lateritas Formacion Volcanica,3.388050833,-76.57034132,1196.772949,31.15164566,NAPOLES,2622330108,134,7/3/2018 0:00,7/3/2018 0:00,7/3/2018NAPOLES,-76.57034132,3.388050833,NAPOLES,0,6,43.9,44.5,44.6,85.2,252.3,399.3
134,135,7,Amenaza baja,0 a 3%,"DAPM, curvas de nivel cada 10m",1,23171,Pasto cultivado arbolado,PCUAR,TOf,Formacion Ferreira,3.353526328,-76.56167817,1140.805542,20.03101158,LA RIVERITA,2622310103,135,7/26/2018 0:00,7/26/2018 0:00,7/26/2018LA RIVERITA,-76.56167817,3.353526328,LA RIVERITA,4,7,20.5,21,26.1,47.8,81.6,322.4
135,136,7,Amenaza baja,14-25%,"DAPM, curvas de nivel cada 10m",4,31211,Bosque mixto abierto alto de tierra firme,BNAALT,Ql/Kv,Lateritas Formacion Volcanica,3.357271601,-76.5994854,1488.616699,10.58029461,LILI - SAN SEBASTIAN,2622310201,136,7/22/2006 0:00,7/22/2006 0:00,7/22/2006LILI - SAN SEBASTIAN,-76.5994854,3.357271601,LILI - SAN SEBASTIAN,0,0,0,0,0,0,256,621
136,137,4,Riesgo bajo,14-25%,"DAPM, curvas de nivel cada 10m",4,11111,Zonas urbanas continuas,ZUC,Ql/Kv,Lateritas Formacion Volcanica,3.491092744,-76.60744309,1667.979858,35.77548218,AGUACATAL,2622420103,137,7/5/2016 0:00,7/5/2016 0:00,7/5/2016AGUACATAL,-76.60744309,3.491092744,AGUACATAL,3,45,69.8,122.2,203,236.8,373.2,466
137,138,7,Amenaza baja,14-25%,"DAPM, curvas de nivel cada 10m",4,31111,Bosque mixto denso alto de tierra firme,BNDALT,TQj,Formacion Jamundi,3.341663093,-76.56318346,1178.929321,11.16884995,LA RIVERITA,2622310103,138,7/9/2017 0:00,7/9/2017 0:00,7/9/2017LA RIVERITA,-76.56318346,3.341663093,LA RIVERITA,0,0,0.8,0.8,22,112.5,227.2,522.6
138,139,7,Amenaza baja,0 a 3%,"DAPM, curvas de nivel cada 10m",1,23170,Pasto cultivado,PCU,TQj,Formacion Jamundi,3.305735784,-76.56347799,1010.32843,10.78195381,JAMUNDI,2622100202,139,7/21/2016 0:00,7/21/2016 0:00,7/21/2016EL PALACIO,-76.56347799,3.305735784,EL PALACIO,0,0,6,6,16,65,181,449
139,140,4,Riesgo bajo,14-25%,"DAPM, curvas de nivel cada 10m",4,12111,Otras superficies artificiales con construcción,OICC,Qd,Derrubios,3.347083724,-76.59074938,1246.129028,24.03407097,LILI - SAN SEBASTIAN,2622310201,140,7/6/2016 0:00,7/6/2016 0:00,7/6/2016LILI - SAN SEBASTIAN,-76.59074938,3.347083724,LILI - SAN SEBASTIAN,0,11,17.6,17.6,18.6,79,294.4,556.8
140,141,4,Riesgo bajo,14-25%,"DAPM, curvas de nivel cada 10m",4,11211,Zonas urbanas discontinuas,ZUD,Ql/Kv,Lateritas Formacion Volcanica,3.526219451,-76.58603501,2098.276855,76.80604553,VILLA ARACELLY,2622420104,141,7/22/2018 0:00,7/22/2018 0:00,7/22/2018AGUACATAL,-76.58603501,3.526219451,AGUACATAL,0,5,6.6,16.6,27,30.8,276,350.2
141,142,4,Riesgo bajo,0 a 3%,"DAPM, curvas de nivel cada 10m",1,11111,Zonas urbanas continuas,ZUC,Ql/Kv,Lateritas Formacion Volcanica,3.388021807,-76.55537043,979.8973999,9.422034264,NAPOLES,2622330108,142,7/28/2018 0:00,7/28/2018 0:00,7/28/2018NAPOLES,-76.55537043,3.388021807,NAPOLES,0,6,31.2,31.2,47,97.2,152.6,330.9
142,143,4,Riesgo bajo,0 a 3%,"DAPM, curvas de nivel cada 10m",1,11111,Zonas urbanas continuas,ZUC,Qca(RMel),Cono aluvial rio Melendez,3.395080173,-76.55720736,979.9776611,1.505561113,NAPOLES,2622330108,143,7/12/2018 0:00,7/12/2018 0:00,7/12/2018NAPOLES,-76.55720736,3.395080173,NAPOLES,0,28,28.4,28.4,56.5,79.1,197.2,340.3
143,144,7,Amenaza baja,0 a 3%,"DAPM, curvas de nivel cada 10m",1,32110,Arbustal y matorral denso alto de tierra firme,ABDALT,TQj,Formacion Jamundi,3.299658512,-76.56942175,996.9848633,17.28817558,JAMUNDI,2622100202,144,7/20/2005 0:00,7/20/2005 0:00,7/20/2005EL PALACIO,-76.56942175,3.299658512,EL PALACIO,0,0,0,10,44,78,128,295
144,145,7,Amenaza baja,0 a 3%,"DAPM, curvas de nivel cada 10m",1,23171,Pasto cultivado arbolado,PCUAR,Qca1(RPan),Cono aluvial 1 rio Pance,3.358087795,-76.55612303,1059.789795,9.321334839,LA RIVERITA,2622310103,145,7/25/2018 0:00,7/25/2018 0:00,7/25/2018LA RIVERITA,-76.55612303,3.358087795,LA RIVERITA,0,16,16.6,16.7,21.2,42.9,98.3,337.1
145,146,4,Riesgo bajo,0 a 3%,"DAPM, curvas de nivel cada 10m",1,32310,Vegetación secundaria o transición,VEGSEC,TOg,Formacion Guachinte,3.374855289,-76.56394336,1113.822266,14.91334724,NAPOLES,2622330108,146,7/10/2019 0:00,7/10/2019 0:00,7/10/2019NAPOLES,-76.56394336,3.374855289,NAPOLES,0,3,6.1,6.1,42.4,65.6,256.4,415.5
146,147,7,Amenaza baja,14-25%,"DAPM, curvas de nivel cada 10m",4,23171,Pasto cultivado arbolado,PCUAR,Qca1(RPan),Cono aluvial 1 rio Pance,3.358231823,-76.55178281,1060.675903,18.85739517,LA RIVERITA,2622310103,147,7/21/2018 0:00,7/21/2018 0:00,7/21/2018LA RIVERITA,-76.55178281,3.358231823,LA RIVERITA,1,1,1.1,1.3,3.7,23.5,100.6,326.8
147,148,7,Amenaza baja,14-25%,"DAPM, curvas de nivel cada 10m",4,32111,Arbustal y matorral denso bajo de tierra firme,ABDBAJ,Qca2(RPan),Cono aluvial 2 rio Pance,3.307603722,-76.55460427,1008.902954,11.46632671,EL PALACIO,2622100102,148,7/19/2016 0:00,7/19/2016 0:00,7/19/2016EL PALACIO,-76.55460427,3.307603722,EL PALACIO,0,6,6,6,6,55,181,452
148,149,7,Amenaza baja,14-25%,"DAPM, curvas de nivel cada 10m",4,31311,Bosque mixto fragmentado con pastos y cultivos,BNFPNC,Qca1(RPan),Cono aluvial 1 rio Pance,3.359385733,-76.55023987,1058.258057,16.14460564,LA RIVERITA,2622310103,149,7/19/2018 0:00,7/19/2018 0:00,7/19/2018LA RIVERITA,-76.55023987,3.359385733,LA RIVERITA,0,0,0.7,3.1,3.1,22.9,104.8,332.1
149,150,4,Riesgo bajo,0 a 3%,"DAPM, curvas de nivel cada 10m",1,11111,Zonas urbanas continuas,ZUC,TOg,Formacion Guachinte,3.407973995,-76.55613378,980.5767212,20.47709465,IDEAS,2622330111,150,7/10/2018 0:00,7/10/2018 0:00,7/10/2018IDEAS,-76.55613378,3.407973995,IDEAS,11,11,11.2,12.3,39.4,43.9,175.5,323
150,151,4,Riesgo bajo,0 a 3%,"DAPM, curvas de nivel cada 10m",1,12111,Otras superficies artificiales con construcción,OICC,Tgp,Stock de Pance – Gabro hornblendico,3.327158203,-76.61838491,1418.886963,74.3428421,PANCE - CHORRERA,2622110103,151,7/1/2016 0:00,7/1/2016 0:00,7/1/2016PANCE - CHORRERA,-76.61838491,3.327158203,PANCE - CHORRERA,1,5,6.6,14.4,56.2,149.8,279.4,554.8
151,152,7,Amenaza baja,14-25%,"DAPM, curvas de nivel cada 10m",4,32210,Arbustal y matorral abierto alto de tierra firme,ABAFAL,TQj,Formacion Jamundi,3.318952,-76.56718013,1162.411255,3.305543661,LA RIVERITA,2622310103,152,7/31/2019 0:00,7/31/2019 0:00,7/31/2019LA RIVERITA,-76.56718013,3.318952,LA RIVERITA,0,0,26.1,31.6,31.6,79.7,309.2,453.9
152,153,4,Riesgo bajo,14-25%,"DAPM, curvas de nivel cada 10m",4,23171,Pasto cultivado arbolado,PCUAR,Ql/Kv,Lateritas Formacion Volcanica,3.437713364,-76.58946944,1414.847168,25.64283943,YANACONAS,2622410102,153,7/10/2013 0:00,7/10/2013 0:00,7/10/2013YANACONAS,-76.58946944,3.437713364,YANACONAS,0,0,25,29,31,82,308,563
153,154,4,Riesgo bajo,14-25%,"DAPM, curvas de nivel cada 10m",4,11111,Zonas urbanas continuas,ZUC,Ql/Kv,Lateritas Formacion Volcanica,3.425896361,-76.57879783,1397.077759,45.97906876,LOS CRISTALES,2622330105,154,7/20/2003 0:00,7/20/2003 0:00,7/20/2003LOS CRISTALES,-76.57879783,3.425896361,LOS CRISTALES,0,0,25,27,33,46,309,598
154,155,4,Riesgo bajo,14-25%,"DAPM, curvas de nivel cada 10m",4,32310,Vegetación secundaria o transición,VEGSEC,Kv,Formacion Volcanica,3.446219943,-76.54978597,1081.565552,14.82753468,PLANTA RIO CALI,2622400103,155,7/23/2015 0:00,7/23/2015 0:00,7/23/2015PLANTA RIO CALI,-76.54978597,3.446219943,PLANTA RIO CALI,0,2,34,34,35,38,64.6,155.6
155,156,7,Amenaza baja,14-25%,"DAPM, curvas de nivel cada 10m",4,23171,Pasto cultivado arbolado,PCUAR,Qca1(RPan),Cono aluvial 1 rio Pance,3.359092791,-76.5540133,1060.763184,25.7235527,LA RIVERITA,2622310103,156,7/30/2019 0:00,7/30/2019 0:00,7/30/2019LA RIVERITA,-76.5540133,3.359092791,LA RIVERITA,0,0,26.1,31.6,31.6,79.7,332.6,457.4
156,157,4,Riesgo bajo,14-25%,"DAPM, curvas de nivel cada 10m",4,11211,Zonas urbanas discontinuas,ZUD,Ql/Kv,Lateritas Formacion Volcanica,3.382573485,-76.57094359,1176.40271,21.14590836,NAPOLES,2622330108,157,7/8/2020 0:00,7/8/2020 0:00,7/8/2020NAPOLES,-76.57094359,3.382573485,NAPOLES,0,2,21.8,35.2,44.1,106.1,252.4,348.1
157,158,4,Riesgo bajo,14-25%,"DAPM, curvas de nivel cada 10m",4,11111,Zonas urbanas continuas,ZUC,Ql/Kv,Lateritas Formacion Volcanica,3.490645471,-76.60593685,1647.789917,1.930218697,AGUACATAL,2622420103,158,7/30/2005 0:00,7/30/2005 0:00,7/30/2005AGUACATAL,-76.60593685,3.490645471,AGUACATAL,3,3,3,12,14,51,119,321
158,159,7,Amenaza baja,0 a 3%,"DAPM, curvas de nivel cada 10m",1,31112,Bosque mixto denso bajo de tierra firme,BNDBAJ,TQj,Formacion Jamundi,3.308653826,-76.5561285,999.4441528,4.175437927,EL PALACIO,2622100102,159,7/17/2016 0:00,7/17/2016 0:00,7/17/2016EL PALACIO,-76.5561285,3.308653826,EL PALACIO,0,0,0,0,18,63,176,446
159,160,4,Riesgo bajo,14-25%,"DAPM, curvas de nivel cada 10m",4,11111,Zonas urbanas continuas,ZUC,Kv,Formacion Volcanica,3.467939673,-76.63072011,1726.195313,34.31271362,FELIDIA,2622400107,160,7/19/2017 0:00,7/19/2017 0:00,7/19/2017FELIDIA,-76.63072011,3.467939673,FELIDIA,15,37,40.6,41.2,51.4,147.4,231.8,458.2
160,161,7,Amenaza baja,14-25%,"DAPM, curvas de nivel cada 10m",4,23172,Pasto cultivado enmalezado,PCURA,TQj,Formacion Jamundi,3.310135194,-76.55431584,1043.776978,8.848095894,EL PALACIO,2622100102,161,8/14/2006 0:00,8/14/2006 0:00,8/14/2006EL PALACIO,-76.55431584,3.310135194,EL PALACIO,0,0,0,0,4,58,68,315
161,162,7,Amenaza baja,0 a 3%,"DAPM, curvas de nivel cada 10m",1,24140,Misceláneo de cultivos y espacios naturales,MSCULV,Qca1(RPan),Cono aluvial 1 rio Pance,3.368549925,-76.55797349,1037.227539,14.1094799,LA RIVERITA,2622310103,162,8/19/2018 0:00,8/19/2018 0:00,8/19/2018LA RIVERITA,-76.55797349,3.368549925,LA RIVERITA,0,0,3.9,3.9,8.8,30,53.9,247.2
162,163,4,Riesgo bajo,14-25%,"DAPM, curvas de nivel cada 10m",4,11211,Zonas urbanas discontinuas,ZUD,Ql/Kv,Lateritas Formacion Volcanica,3.398297951,-76.56908682,1197.104248,22.45061493,IDEAS,2622330111,163,8/22/2016 0:00,8/22/2016 0:00,8/22/2016IDEAS,-76.56908682,3.398297951,IDEAS,0,0,0,0,0,25.1,37.3,228
163,164,4,Riesgo bajo,14-25%,"DAPM, curvas de nivel cada 10m",4,11111,Zonas urbanas continuas,ZUC,Kv,Formacion Volcanica,3.438775008,-76.54206009,999.5701904,35.12570953,PLANTA RIO CALI,2622400103,164,9/20/2015 0:00,9/20/2015 0:00,9/20/2015PLANTA RIO CALI,-76.54206009,3.438775008,PLANTA RIO CALI,0,0,0.6,0.6,2,2.7,25.1,62.7
164,165,7,Amenaza baja,14-25%,"DAPM, curvas de nivel cada 10m",4,33130,Helechal,HELECH,TQj,Formacion Jamundi,3.332254243,-76.56664001,1147.813477,35.50212479,LA RIVERITA,2622310103,165,9/19/2018 0:00,9/19/2018 0:00,9/19/2018LA RIVERITA,-76.56664001,3.332254243,LA RIVERITA,0,0,46.5,46.5,46.5,50.8,80.8,104.7
165,166,7,Amenaza baja,0 a 3%,"DAPM, curvas de nivel cada 10m",1,12211,Otras superficies artificiales sin construcción,OISC,Kv,Formacion Volcanica,3.411515087,-76.56257091,978.6077881,5.929447651,IDEAS,2622330111,166,8/1/2016 0:00,8/1/2016 0:00,8/1/2016IDEAS,-76.56257091,3.411515087,IDEAS,0,0,22.2,24.1,24.1,26.7,172.3,346.8
166,167,4,Riesgo bajo,14-25%,"DAPM, curvas de nivel cada 10m",4,11111,Zonas urbanas continuas,ZUC,Kv,Formacion Volcanica,3.442753944,-76.54019503,995.7229614,9.25279808,PLANTA RIO CALI,2622400103,167,8/11/2014 0:00,8/11/2014 0:00,8/11/2014PLANTA RIO CALI,-76.54019503,3.442753944,PLANTA RIO CALI,0,0,14.2,14.6,19.4,69,169.6,385.2
167,168,7,Amenaza baja,14-25%,"DAPM, curvas de nivel cada 10m",4,23171,Pasto cultivado arbolado,PCUAR,Qca1(RPan),Cono aluvial 1 rio Pance,3.353751765,-76.55325786,1076.765991,18.67356682,LA RIVERITA,2622310103,168,8/2/2019 0:00,8/2/2019 0:00,8/2/2019LA RIVERITA,-76.55325786,3.353751765,LA RIVERITA,0,0,0.1,26.1,31.6,54.4,292.1,450.1
168,169,4,Riesgo bajo,14-25%,"DAPM, curvas de nivel cada 10m",4,11111,Zonas urbanas continuas,ZUC,Ql/Kv,Lateritas Formacion Volcanica,3.438767531,-76.6174864,1654.293213,4.839818478,PICHINDE,2622400108,169,8/2/2016 0:00,8/2/2016 0:00,8/2/2016PICHINDE,-76.6174864,3.438767531,PICHINDE,0,0,28.6,31,31.4,51.8,184.4,466
169,170,4,Riesgo bajo,14-25%,"DAPM, curvas de nivel cada 10m",4,11111,Zonas urbanas continuas,ZUC,Kv,Formacion Volcanica,3.451576693,-76.56251659,1132.450928,27.84732246,CALI - BOCATOMA,2622400106,170,8/27/2015 0:00,8/27/2015 0:00,8/27/2015CALI - BOCATOMA,-76.56251659,3.451576693,CALI - BOCATOMA,0,0,0.2,0.2,14.2,26.4,62.4,77.8
170,171,7,Amenaza baja,14-25%,"DAPM, curvas de nivel cada 10m",4,32211,Arbustal y matorral abierto bajo de tierra firme,ABAFBA,TQj,Formacion Jamundi,3.333189261,-76.56894541,1148.419189,28.73257828,LA RIVERITA,2622310103,171,9/30/2018 0:00,9/30/2018 0:00,9/30/2018LA RIVERITA,-76.56894541,3.333189261,LA RIVERITA,2,2,5.2,5.2,6.6,51.8,71.7,108.2
171,172,7,Amenaza baja,0 a 3%,"DAPM, curvas de nivel cada 10m",1,31311,Bosque mixto fragmentado con pastos y cultivos,BNFPNC,Ql/Kv,Lateritas Formacion Volcanica,3.370534693,-76.55742108,1062.715698,10.22785187,LA RIVERITA,2622310103,172,8/14/2018 0:00,8/14/2018 0:00,8/14/2018LA RIVERITA,-76.55742108,3.370534693,LA RIVERITA,2,4,3.9,8.8,28.7,32.4,78.8,259.1
172,173,4,Riesgo bajo,14-25%,"DAPM, curvas de nivel cada 10m",4,23171,Pasto cultivado arbolado,PCUAR,Ql/Kv,Lateritas Formacion Volcanica,3.509245293,-76.6185847,1889.014282,15.15664768,SAN PABLO,2622420102,173,8/4/2019 0:00,8/4/2019 0:00,8/4/2019AGUACATAL,-76.6185847,3.509245293,AGUACATAL,1,12,11.6,11.8,18.6,32.4,137.6,289.6
173,174,4,Riesgo bajo,0 a 3%,"DAPM, curvas de nivel cada 10m",1,11111,Zonas urbanas continuas,ZUC,Kv,Formacion Volcanica,3.47701013,-76.55696732,1184.547241,27.58821106,AGUACATAL-MONTEBELLO,2622420101,174,8/21/2013 0:00,8/21/2013 0:00,8/21/2013AGUACATAL-MONTEBELLO,-76.55696732,3.47701013,AGUACATAL-MONTEBELLO,0,0,0,1,47,47,99,170
174,175,7,Amenaza baja,14-25%,"DAPM, curvas de nivel cada 10m",4,23172,Pasto cultivado enmalezado,PCURA,TQj,Formacion Jamundi,3.321241862,-76.56739436,1174.192871,25.31579781,LA RIVERITA,2622310103,175,8/12/2018 0:00,8/12/2018 0:00,8/12/2018LA RIVERITA,-76.56739436,3.321241862,LA RIVERITA,0,0,0,9.6,27.3,30.4,76.4,267.8
175,176,4,Riesgo bajo,14-25%,"DAPM, curvas de nivel cada 10m",4,11211,Zonas urbanas discontinuas,ZUD,Ql/Kv,Lateritas Formacion Volcanica,3.379471544,-76.56810111,1158.298706,9.412157059,NAPOLES,2622330108,176,9/11/2019 0:00,9/11/2019 0:00,9/11/2019NAPOLES,-76.56810111,3.379471544,NAPOLES,1,1,1.2,1.2,12.1,14.6,51.8,115.7
176,177,7,Amenaza baja,14-25%,"DAPM, curvas de nivel cada 10m",4,31112,Bosque mixto denso bajo de tierra firme,BNDBAJ,TQj,Formacion Jamundi,3.314544487,-76.56178372,1067.65564,13.21183777,EL PALACIO,2622100102,177,9/21/2014 0:00,9/21/2014 0:00,9/21/2014EL PALACIO,-76.56178372,3.314544487,EL PALACIO,1,1,22,24,24,39,45,88
177,178,4,Riesgo bajo,0 a 3%,"DAPM, curvas de nivel cada 10m",1,11211,Zonas urbanas discontinuas,ZUD,Ql/Kv,Lateritas Formacion Volcanica,3.411265082,-76.56947876,998.8848877,15.79623604,IDEAS,2622330111,178,8/11/2018 0:00,8/11/2018 0:00,8/11/2018IDEAS,-76.56947876,3.411265082,IDEAS,0,0,0.6,6.5,21.7,34,86.4,225.1
178,179,4,Riesgo bajo,14-25%,"DAPM, curvas de nivel cada 10m",4,11111,Zonas urbanas continuas,ZUC,Kv,Formacion Volcanica,3.406481734,-76.57565372,1041.108154,48.332901,IDEAS,2622330111,179,8/12/2018 0:00,8/12/2018 0:00,8/12/2018IDEAS,-76.57565372,3.406481734,IDEAS,0,0,0.1,5.7,23,35.3,85.4,224.5
179,180,7,Amenaza baja,0 a 3%,"DAPM, curvas de nivel cada 10m",1,23171,Pasto cultivado arbolado,PCUAR,TQj,Formacion Jamundi,3.316281756,-76.5579123,1098.094482,16.83687592,EL PALACIO,2622100102,180,8/2/2014 0:00,8/2/2014 0:00,8/2/2014EL PALACIO,-76.5579123,3.316281756,EL PALACIO,0,0,0,2,6,7,77,262
180,181,4,Riesgo bajo,0 a 3%,"DAPM, curvas de nivel cada 10m",1,11211,Zonas urbanas discontinuas,ZUD,Qca1(RPan),Cono aluvial 1 rio Pance,3.365320716,-76.56171123,1053.939453,12.8718977,LA RIVERITA,2622310103,181,8/11/2018 0:00,8/11/2018 0:00,8/11/2018LA RIVERITA,-76.56171123,3.365320716,LA RIVERITA,0,0,4.9,11.8,25.8,28.5,76.8,267.8
181,182,4,Riesgo bajo,0 a 3%,"DAPM, curvas de nivel cada 10m",1,11111,Zonas urbanas continuas,ZUC,Ql/Kv,Lateritas Formacion Volcanica,3.391745416,-76.55780392,979.0475464,10.77940559,NAPOLES,2622330108,182,9/6/2019 0:00,9/6/2019 0:00,9/6/2019NAPOLES,-76.55780392,3.391745416,NAPOLES,0,0,0,0,0,3.3,54,121.8
182,183,4,Riesgo bajo,0 a 3%,"DAPM, curvas de nivel cada 10m",1,11111,Zonas urbanas continuas,ZUC,Qal,Depositos aluviales,3.411591845,-76.55794102,978.7866211,3.90370369,IDEAS,2622330111,183,8/29/2019 0:00,8/29/2019 0:00,8/29/2019IDEAS,-76.55794102,3.411591845,IDEAS,0,0,0,0,1.2,4.3,69.4,142.9
183,184,7,Amenaza baja,0 a 3%,"DAPM, curvas de nivel cada 10m",1,32211,Arbustal y matorral abierto bajo de tierra firme,ABAFBA,TQj,Formacion Jamundi,3.321968448,-76.55315243,1023.52301,12.43942547,LA RIVERITA,2622310103,184,8/2/2019 0:00,8/2/2019 0:00,8/2/2019LA RIVERITA,-76.55315243,3.321968448,LA RIVERITA,0,0,0.1,26.1,31.6,54.4,292.1,450.1
184,185,7,Amenaza baja,14-25%,"DAPM, curvas de nivel cada 10m",4,23172,Pasto cultivado enmalezado,PCURA,TQj,Formacion Jamundi,3.311886943,-76.56377383,1066.242188,36.49390411,EL PALACIO,2622100102,185,8/12/2014 0:00,8/12/2014 0:00,8/12/2014EL PALACIO,-76.56377383,3.311886943,EL PALACIO,0,3,4,4,4,10,49,120
185,186,4,Riesgo bajo,14-25%,"DAPM, curvas de nivel cada 10m",4,32310,Vegetación secundaria o transición,VEGSEC,Ql/Kv,Lateritas Formacion Volcanica,3.425125217,-76.57217284,1248.960449,27.71334839,LOS CRISTALES,2622330105,186,8/14/2016 0:00,8/14/2016 0:00,8/14/2016LOS CRISTALES,-76.57217284,3.425125217,LOS CRISTALES,0,0,0,0,0,29,44,222
186,187,4,Riesgo bajo,14-25%,"DAPM, curvas de nivel cada 10m",4,11111,Zonas urbanas continuas,ZUC,Kv,Formacion Volcanica,3.445713363,-76.5406592,1021.697815,25.47702599,PLANTA RIO CALI,2622400103,187,8/7/2020 0:00,8/7/2020 0:00,8/7/2020PLANTA RIO CALI,-76.5406592,3.445713363,PLANTA RIO CALI,0,0,0,0,21,45.6,181.8,495.2
187,188,7,Amenaza baja,0 a 3%,"DAPM, curvas de nivel cada 10m",1,32211,Arbustal y matorral abierto bajo de tierra firme,ABAFBA,TQj,Formacion Jamundi,3.306605508,-76.56708583,1019.617249,7.446995735,JAMUNDI,2622100202,188,8/5/2016 0:00,8/5/2016 0:00,8/5/2016EL PALACIO,-76.56708583,3.306605508,EL PALACIO,0,0,0,1,20,26,102,259
188,189,4,Riesgo bajo,14-25%,"DAPM, curvas de nivel cada 10m",4,23170,Pasto cultivado,PCU,TOg,Formacion Guachinte,3.32129201,-76.59431149,1519.602661,27.69261932,PANCE - CHORRERA,2622110103,189,9/18/2016 0:00,9/18/2016 0:00,9/18/2016PANCE - CHORRERA,-76.59431149,3.32129201,PANCE - CHORRERA,0,0,0.4,0.8,44.8,69,107.2,156.2
189,190,7,Amenaza baja,14-25%,"DAPM, curvas de nivel cada 10m",4,31352,Bosque de guadua,BG,Qca2(RPan),Cono aluvial 2 rio Pance,3.345165086,-76.55619867,1110.321899,12.20032215,LA RIVERITA,2622310103,190,9/4/2018 0:00,9/4/2018 0:00,9/4/2018LA RIVERITA,-76.55619867,3.345165086,LA RIVERITA,0,0,3.3,3.3,4.3,8.2,44.2,93.4
190,191,7,Amenaza baja,14-25%,"DAPM, curvas de nivel cada 10m",4,31311,Bosque mixto fragmentado con pastos y cultivos,BNFPNC,TOf,Formacion Ferreira,3.355892446,-76.56267196,1112.053223,14.38232422,LA RIVERITA,2622310103,191,9/4/2018 0:00,9/4/2018 0:00,9/4/2018LA RIVERITA,-76.56267196,3.355892446,LA RIVERITA,0,0,3.3,3.3,4.3,8.2,44.2,93.4
191,192,7,Amenaza baja,0 a 3%,"DAPM, curvas de nivel cada 10m",1,11111,Zonas urbanas continuas,ZUC,Kv,Formacion Volcanica,3.448095758,-76.54613274,1045.576538,12.03397751,PLANTA RIO CALI,2622400103,192,8/20/2015 0:00,8/20/2015 0:00,8/20/2015PLANTA RIO CALI,-76.54613274,3.448095758,PLANTA RIO CALI,0,0,7.4,11.6,20.6,24.2,60,91.6
192,193,4,Riesgo bajo,14-25%,"DAPM, curvas de nivel cada 10m",4,23170,Pasto cultivado,PCU,Kv,Formacion Volcanica,3.477968013,-76.61008435,1620.673828,18.9548378,FELIDIA,2622400107,193,8/5/2018 0:00,8/5/2018 0:00,8/5/2018FELIDIA,-76.61008435,3.477968013,FELIDIA,0,12,50.4,63.6,109.8,118,243,501.2
193,194,7,Amenaza baja,14-25%,"DAPM, curvas de nivel cada 10m",4,23170,Pasto cultivado,PCU,TQj,Formacion Jamundi,3.33369466,-76.55385131,1061.368774,7.117706299,LA RIVERITA,2622310103,194,8/14/2018 0:00,8/14/2018 0:00,8/14/2018LA RIVERITA,-76.55385131,3.33369466,LA RIVERITA,2,4,3.9,8.8,28.7,32.4,78.8,259.1
194,195,4,Riesgo bajo,14-25%,"DAPM, curvas de nivel cada 10m",4,11111,Zonas urbanas continuas,ZUC,Qca1(RPan),Cono aluvial 1 rio Pance,3.356171834,-76.55811358,1074.577637,20.21354103,LA RIVERITA,2622310103,195,8/15/2019 0:00,8/15/2019 0:00,8/15/2019LA RIVERITA,-76.55811358,3.356171834,LA RIVERITA,0,0,0,0,0,31.6,147.9,380.9
195,196,7,Amenaza baja,14-25%,"DAPM, curvas de nivel cada 10m",4,12211,Otras superficies artificiales sin construcción,OISC,TOg,Formacion Guachinte,3.395575422,-76.55894891,990.6241455,33.74820709,NAPOLES,2622330108,196,8/31/2019 0:00,8/31/2019 0:00,8/31/2019NAPOLES,-76.55894891,3.395575422,NAPOLES,0,0,0,0,2.5,3.9,57.1,146.3
196,197,4,Riesgo bajo,14-25%,"DAPM, curvas de nivel cada 10m",4,31331,Bosque mixto fragmentado con vegetación natural,BNFVN,Ql/Kv,Lateritas Formacion Volcanica,3.428324314,-76.5615536,1215.078613,31.43389893,LOS CRISTALES,2622330105,197,8/10/2015 0:00,8/10/2015 0:00,8/10/2015LOS CRISTALES,-76.5615536,3.428324314,LOS CRISTALES,0,7,7,7,27,36,36,68
197,198,7,Amenaza baja,14-25%,"DAPM, curvas de nivel cada 10m",4,31112,Bosque mixto denso bajo de tierra firme,BNDBAJ,TQj,Formacion Jamundi,3.31058708,-76.56748666,1089.696411,28.97308731,EL PALACIO,2622100102,198,8/15/2016 0:00,8/15/2016 0:00,8/15/2016EL PALACIO,-76.56748666,3.31058708,EL PALACIO,0,0,2,2,2,28,95,204
198,199,4,Riesgo bajo,0 a 3%,"DAPM, curvas de nivel cada 10m",1,11111,Zonas urbanas continuas,ZUC,Qca(RMel),Cono aluvial rio Melendez,3.413852272,-76.55634509,977.2761841,1.460784912,IDEAS,2622330111,199,8/10/2016 0:00,8/10/2016 0:00,8/10/2016IDEAS,-76.55634509,3.413852272,IDEAS,0,0,1.2,1.2,23.4,25.4,115.5,265.4
199,200,4,Riesgo bajo,14-25%,"DAPM, curvas de nivel cada 10m",4,12111,Otras superficies artificiales con construcción,OICC,Ql/Kv,Lateritas Formacion Volcanica,3.412719087,-76.57383389,1020.507141,26.32086754,IDEAS,2622330111,200,8/7/2016 0:00,8/7/2016 0:00,8/7/2016IDEAS,-76.57383389,3.412719087,IDEAS,1,1,1.2,1.3,25.1,25.4,123.7,272.6
200,201,4,Riesgo bajo,0 a 3%,"DAPM, curvas de nivel cada 10m",1,11111,Zonas urbanas continuas,ZUC,Qca(RMel),Cono aluvial rio Melendez,3.439006432,-76.53879799,979.7841797,19.36191368,COLEGIO SAN JUAN BOSCO,2622330101,201,9/16/2015 0:00,9/16/2015 0:00,9/16/2015PLANTA RIO CALI,-76.53879799,3.439006432,PLANTA RIO CALI,0,0,0,1.4,2,2.7,58.1,62.1
201,202,4,Riesgo bajo,14-25%,"DAPM, curvas de nivel cada 10m",4,11111,Zonas urbanas continuas,ZUC,Kv,Formacion Volcanica,3.448791186,-76.54796942,1087.928711,23.75614548,PLANTA RIO CALI,2622400103,202,9/1/2016 0:00,9/1/2016 0:00,9/1/2016PLANTA RIO CALI,-76.54796942,3.448791186,PLANTA RIO CALI,1,4,6,6,6.1,6.1,7.3,21.7
202,203,4,Riesgo bajo,14-25%,"DAPM, curvas de nivel cada 10m",4,11111,Zonas urbanas continuas,ZUC,Qca1(RPan),Cono aluvial 1 rio Pance,3.357477636,-76.5454388,1012.72052,21.29816628,LA RIVERITA,2622310103,203,8/4/2019 0:00,8/4/2019 0:00,8/4/2019LA RIVERITA,-76.5454388,3.357477636,LA RIVERITA,0,0,0,0.2,31.6,54.3,282.2,437.4
203,204,4,Riesgo bajo,14-25%,"DAPM, curvas de nivel cada 10m",4,23171,Pasto cultivado arbolado,PCUAR,Ql/Kv,Lateritas Formacion Volcanica,3.509520625,-76.61064921,1726.977905,6.469877243,AGUACATAL,2622420103,204,8/11/2012 0:00,8/11/2012 0:00,8/11/2012AGUACATAL,-76.61064921,3.509520625,AGUACATAL,0,0,0,13,17,17,94,103
204,205,4,Riesgo bajo,14-25%,"DAPM, curvas de nivel cada 10m",4,22210,Otros cultivos arbustivos plantados abiertos,OCABA,Kv,Formacion Volcanica,3.472180557,-76.61775646,1735.423096,18.45457268,FELIDIA,2622400107,205,9/3/2016 0:00,9/3/2016 0:00,9/3/2016FELIDIA,-76.61775646,3.472180557,FELIDIA,0,4,15.6,15.8,27.6,28,128.4,247.6
205,206,7,Amenaza baja,14-25%,"DAPM, curvas de nivel cada 10m",4,31112,Bosque mixto denso bajo de tierra firme,BNDBAJ,TQj,Formacion Jamundi,3.336497892,-76.56607976,1145.077148,17.46041298,LA RIVERITA,2622310103,206,9/9/2018 0:00,9/9/2018 0:00,9/9/2018LA RIVERITA,-76.56607976,3.336497892,LA RIVERITA,0,0,0,3.3,3.3,8.2,36.7,88
206,207,7,Amenaza baja,14-25%,"DAPM, curvas de nivel cada 10m",4,31212,Bosque mixto abierto bajo de tierra firme,BNABAJ,TQj,Formacion Jamundi,3.308252623,-76.56594994,1040.025391,18.59772682,JAMUNDI,2622100202,207,8/16/2016 0:00,8/16/2016 0:00,8/16/2016EL PALACIO,-76.56594994,3.308252623,EL PALACIO,0,0,2,2,3,29,85,204
207,208,4,Riesgo bajo,14-25%,"DAPM, curvas de nivel cada 10m",4,12111,Otras superficies artificiales con construcción,OICC,Ttp,Stock de Pance – Tonalita hornblendica biotitica,3.321722966,-76.62693057,1540.066284,18.83633614,EL TOPACIO,2622110201,208,9/2/2019 0:00,9/2/2019 0:00,9/2/2019EL TOPACIO,-76.62693057,3.321722966,EL TOPACIO,0,0,0.1,0.1,0.1,5.8,91.5,247.7
208,209,4,Riesgo bajo,14-25%,"DAPM, curvas de nivel cada 10m",4,11111,Zonas urbanas continuas,ZUC,Kv,Formacion Volcanica,3.483490836,-76.60467404,1714.819214,14.39176178,AGUACATAL,2622420103,209,9/20/2003 0:00,9/20/2003 0:00,9/20/2003AGUACATAL,-76.60467404,3.483490836,AGUACATAL,11,62,88,89,102,133,191,237
209,210,4,Riesgo bajo,14-25%,"DAPM, curvas de nivel cada 10m",4,11111,Zonas urbanas continuas,ZUC,Ql/Kv,Lateritas Formacion Volcanica,3.376593751,-76.55414038,1032.593384,43.2796936,NAPOLES,2622330108,210,8/30/2019 0:00,8/30/2019 0:00,8/30/2019NAPOLES,-76.55414038,3.376593751,NAPOLES,0,0,0,0.3,2.5,3.9,57.1,146.3
210,211,4,Riesgo bajo,14-25%,"DAPM, curvas de nivel cada 10m",4,11211,Zonas urbanas discontinuas,ZUD,Kv,Formacion Volcanica,3.407295188,-76.56605559,1015.724304,54.32753372,IDEAS,2622330111,211,8/19/2016 0:00,8/19/2016 0:00,8/19/2016IDEAS,-76.56605559,3.407295188,IDEAS,0,0,0,0,1.2,25.3,38.9,232.8
211,212,7,Amenaza baja,0 a 3%,"DAPM, curvas de nivel cada 10m",1,31112,Bosque mixto denso bajo de tierra firme,BNDBAJ,TQj,Formacion Jamundi,3.305464479,-76.56933383,1027.715698,25.13285637,JAMUNDI,2622100202,212,8/3/2005 0:00,8/3/2005 0:00,8/3/2005EL PALACIO,-76.56933383,3.305464479,EL PALACIO,13,17,17,17,51,65,118,252
212,213,7,Amenaza baja,14-25%,"DAPM, curvas de nivel cada 10m",4,31211,Bosque mixto abierto alto de tierra firme,BNAALT,TQj,Formacion Jamundi,3.332196135,-76.56038314,1095.114502,34.35593033,LA RIVERITA,2622310103,213,8/4/2019 0:00,8/4/2019 0:00,8/4/2019LA RIVERITA,-76.56038314,3.332196135,LA RIVERITA,0,0,0,0.2,31.6,54.3,282.2,437.4
213,214,4,Riesgo bajo,14-25%,"DAPM, curvas de nivel cada 10m",4,22210,Otros cultivos arbustivos plantados abiertos,OCABA,Kv,Formacion Volcanica,3.473084928,-76.6165532,1710.031738,20.21956444,FELIDIA,2622400107,214,8/12/2015 0:00,8/12/2015 0:00,8/12/2015FELIDIA,-76.6165532,3.473084928,FELIDIA,4,4,5.2,5.2,17,72.6,75.2,140
214,215,7,Amenaza baja,0 a 3%,"DAPM, curvas de nivel cada 10m",1,31211,Bosque mixto abierto alto de tierra firme,BNAALT,TQj,Formacion Jamundi,3.334126609,-76.55713142,1113.99585,43.17988968,LA RIVERITA,2622310103,215,8/30/2018 0:00,8/30/2018 0:00,8/30/2018LA RIVERITA,-76.55713142,3.334126609,LA RIVERITA,0,0,1,1,4.2,32.9,53.2,130.1
215,216,4,Riesgo bajo,14-25%,"DAPM, curvas de nivel cada 10m",4,11111,Zonas urbanas continuas,ZUC,Ql/Kv,Lateritas Formacion Volcanica,3.498166514,-76.54860723,1431.13208,61.8375473,AGUACATAL-MONTEBELLO,2622420101,216,9/16/2015 0:00,9/16/2015 0:00,9/16/2015AGUACATAL-MONTEBELLO,-76.54860723,3.498166514,AGUACATAL-MONTEBELLO,1,1,1,1,53,53,43,59
216,217,7,Amenaza baja,0 a 3%,"DAPM, curvas de nivel cada 10m",1,31112,Bosque mixto denso bajo de tierra firme,BNDBAJ,Ql/Kv,Lateritas Formacion Volcanica,3.381437583,-76.59131196,1375.608398,24.2531414,LILI - SAN SEBASTIAN,2622310201,217,8/9/2019 0:00,8/9/2019 0:00,8/9/2019LILI - SAN SEBASTIAN,-76.59131196,3.381437583,LILI - SAN SEBASTIAN,0,0,0.4,0.4,1.2,33,157.8,487.8
217,218,7,Amenaza baja,0 a 3%,"DAPM, curvas de nivel cada 10m",1,23171,Pasto cultivado arbolado,PCUAR,Qca2(RPan),Cono aluvial 2 rio Pance,3.308469929,-76.54833154,997.682312,10.48108673,EL PALACIO,2622100102,218,8/14/2016 0:00,8/14/2016 0:00,8/14/2016EL PALACIO,-76.54833154,3.308469929,EL PALACIO,0,0,2,2,2,28,95,204
218,219,4,Riesgo bajo,14-25%,"DAPM, curvas de nivel cada 10m",4,11211,Zonas urbanas discontinuas,ZUD,Ql/Kv,Lateritas Formacion Volcanica,3.389085582,-76.58439635,1289.535889,14.71519279,LA FONDA,2622320101,219,8/20/2015 0:00,8/20/2015 0:00,8/20/2015LA FONDA CANTA CLARO,-76.58439635,3.389085582,LA FONDA CANTA CLARO,0,0,4,4,4,33,36,71
219,220,7,Amenaza baja,14-25%,"DAPM, curvas de nivel cada 10m",4,31112,Bosque mixto denso bajo de tierra firme,BNDBAJ,Ql/Kv,Lateritas Formacion Volcanica,3.405207869,-76.57394837,1044.613892,27.37122154,IDEAS,2622330111,220,8/18/2016 0:00,8/18/2016 0:00,8/18/2016IDEAS,-76.57394837,3.405207869,IDEAS,0,0,0,0,1.2,25.3,61.4,232.8
220,221,4,Riesgo bajo,0 a 3%,"DAPM, curvas de nivel cada 10m",1,11111,Zonas urbanas continuas,ZUC,Qca(RMel),Cono aluvial rio Melendez,3.414379089,-76.55716333,975.9177856,5.017901897,IDEAS,2622330111,221,9/7/2016 0:00,9/7/2016 0:00,9/7/2016IDEAS,-76.55716333,3.414379089,IDEAS,0,17,29.8,41.8,50.9,50.9,67.4,157.5
221,222,7,Amenaza baja,14-25%,"DAPM, curvas de nivel cada 10m",4,31212,Bosque mixto abierto bajo de tierra firme,BNABAJ,TQj,Formacion Jamundi,3.32313678,-76.55579754,1064.613892,13.49347401,LA RIVERITA,2622310103,222,8/15/2019 0:00,8/15/2019 0:00,8/15/2019LA RIVERITA,-76.55579754,3.32313678,LA RIVERITA,0,0,0,0,0,31.6,147.9,380.9
222,223,4,Riesgo bajo,0 a 3%,"DAPM, curvas de nivel cada 10m",1,11111,Zonas urbanas continuas,ZUC,Kv,Formacion Volcanica,3.440571208,-76.54269011,1016.380859,10.84612179,PLANTA RIO CALI,2622400103,223,9/19/2015 0:00,9/19/2015 0:00,9/19/2015PLANTA RIO CALI,-76.54269011,3.440571208,PLANTA RIO CALI,0,1,0.6,0.6,2,2.7,26.9,62.7
223,224,4,Riesgo bajo,14-25%,"DAPM, curvas de nivel cada 10m",4,11211,Zonas urbanas discontinuas,ZUD,Ql/Kv,Lateritas Formacion Volcanica,3.411102881,-76.5845471,1146.140625,24.37234688,LAS BRISAS,2622330106,224,8/24/2016 0:00,8/24/2016 0:00,8/24/2016LAS BRISAS,-76.5845471,3.411102881,LAS BRISAS,0,0,0,0,0,5,35,307
224,225,7,Amenaza baja,0 a 3%,"DAPM, curvas de nivel cada 10m",1,31112,Bosque mixto denso bajo de tierra firme,BNDBAJ,TQj,Formacion Jamundi,3.31372683,-76.57351331,1098.065552,5.118289471,PANCE - CHORRERA,2622110103,225,9/26/2016 0:00,9/26/2016 0:00,9/26/2016PANCE - CHORRERA,-76.57351331,3.31372683,PANCE - CHORRERA,0,0,0,0.2,0.4,68.6,78.4,147
225,226,7,Amenaza baja,0 a 3%,"DAPM, curvas de nivel cada 10m",1,31352,Bosque de guadua,BG,Qca2(RPan),Cono aluvial 2 rio Pance,3.320639085,-76.55228608,1022.48407,8.349160194,EL PALACIO,2622100102,226,8/5/2005 0:00,8/5/2005 0:00,8/5/2005EL PALACIO,-76.55228608,3.320639085,EL PALACIO,0,13,17,17,17,61,118,248
226,227,4,Riesgo bajo,14-25%,"DAPM, curvas de nivel cada 10m",4,23171,Pasto cultivado arbolado,PCUAR,Ql/Kv,Lateritas Formacion Volcanica,3.531916545,-76.58904191,2064.802734,34.31137466,VILLA ARACELLY,2622420104,227,10/1/2012 0:00,10/1/2012 0:00,10/1/2012AGUACATAL,-76.58904191,3.531916545,AGUACATAL,0,2,10,41,46,47,115,132
227,228,4,Riesgo bajo,14-25%,"DAPM, curvas de nivel cada 10m",4,11211,Zonas urbanas discontinuas,ZUD,Kv,Formacion Volcanica,3.470096159,-76.62264651,1749.367798,19.15121651,FELIDIA,2622400107,228,8/4/2018 0:00,8/4/2018 0:00,8/4/2018FELIDIA,-76.62264651,3.470096159,FELIDIA,10,12,53,80.6,109.8,118,242.8,502.4
228,229,7,Amenaza baja,14-25%,"DAPM, curvas de nivel cada 10m",4,23170,Pasto cultivado,PCU,TQj,Formacion Jamundi,3.313027283,-76.55182302,1025.526733,13.40090847,EL PALACIO,2622100102,229,9/22/2015 0:00,9/22/2015 0:00,9/22/2015EL PALACIO,-76.55182302,3.313027283,EL PALACIO,0,3,6,6,36,36,82,117
229,230,4,Riesgo bajo,0 a 3%,"DAPM, curvas de nivel cada 10m",1,11111,Zonas urbanas continuas,ZUC,Kv,Formacion Volcanica,3.44334495,-76.54536904,1008.166992,6.83160305,PLANTA RIO CALI,2622400103,230,8/14/2016 0:00,8/14/2016 0:00,8/14/2016PLANTA RIO CALI,-76.54536904,3.44334495,PLANTA RIO CALI,0,0,0,0,0.4,0.5,8.8,20.2
230,231,4,Riesgo bajo,14-25%,"DAPM, curvas de nivel cada 10m",4,11111,Zonas urbanas continuas,ZUC,Qca,Conos aluviales,3.48829635,-76.5258627,978.6459351,31.40012169,AGUACATAL-MONTEBELLO,2622420101,231,9/24/2014 0:00,9/24/2014 0:00,9/24/2014AGUACATAL-MONTEBELLO,-76.5258627,3.48829635,AGUACATAL-MONTEBELLO,0,11,25,26,76,95,91,94
231,232,4,Riesgo bajo,14-25%,"DAPM, curvas de nivel cada 10m",4,11211,Zonas urbanas discontinuas,ZUD,Ql/Kv,Lateritas Formacion Volcanica,3.36729033,-76.55951053,1077.251587,32.37542343,LA RIVERITA,2622310103,232,8/18/2018 0:00,8/18/2018 0:00,8/18/2018LA RIVERITA,-76.55951053,3.36729033,LA RIVERITA,0,0,3.9,3.9,13.1,30,54.1,247.2
232,233,7,Amenaza baja,0 a 3%,"DAPM, curvas de nivel cada 10m",1,31331,Bosque mixto fragmentado con vegetación natural,BNFVN,Qca2(RPan),Cono aluvial 2 rio Pance,3.337971013,-76.55335048,1067.897705,22.55916977,LA RIVERITA,2622310103,233,9/27/2018 0:00,9/27/2018 0:00,9/27/2018LA RIVERITA,-76.55335048,3.337971013,LA RIVERITA,2,3,2.9,2.9,49.4,52.7,83,105.9
233,234,4,Riesgo bajo,14-25%,"DAPM, curvas de nivel cada 10m",4,11111,Zonas urbanas continuas,ZUC,TOg,Formacion Guachinte,3.462303985,-76.53435123,999.9649658,7.230886936,COLEGIO SAN LUIS,2622400101,234,9/24/2019 0:00,9/24/2019 0:00,9/24/2019COLEGIO SAN LUIS,-76.53435123,3.462303985,COLEGIO SAN LUIS,0,0,69.8,73.4,96.8,96.8,92.2,105.8
234,235,7,Amenaza baja,0 a 3%,"DAPM, curvas de nivel cada 10m",1,31112,Bosque mixto denso bajo de tierra firme,BNDBAJ,TQj,Formacion Jamundi,3.306626777,-76.57281247,1043.530151,6.756033421,PANCE - CHORRERA,2622110103,235,9/15/2016 0:00,9/15/2016 0:00,9/15/2016PANCE - CHORRERA,-76.57281247,3.306626777,PANCE - CHORRERA,0,0,0.6,25.4,46.2,69,111.4,197.6
235,236,4,Riesgo bajo,0 a 3%,"DAPM, curvas de nivel cada 10m",1,11111,Zonas urbanas continuas,ZUC,Kv,Formacion Volcanica,3.478460245,-76.55733489,1207.986816,17.4318943,AGUACATAL-MONTEBELLO,2622420101,236,9/13/2005 0:00,9/13/2005 0:00,9/13/2005AGUACATAL-MONTEBELLO,-76.55733489,3.478460245,AGUACATAL-MONTEBELLO,0,0,0,4,16,60,92,142
236,237,4,Riesgo bajo,14-25%,"DAPM, curvas de nivel cada 10m",4,11211,Zonas urbanas discontinuas,ZUD,Kv,Formacion Volcanica,3.399379822,-76.57010561,1167.409058,28.36438751,IDEAS,2622330111,237,8/1/2016 0:00,8/1/2016 0:00,8/1/2016IDEAS,-76.57010561,3.399379822,IDEAS,0,0,22.2,24.1,24.1,26.7,172.3,346.8
237,238,4,Riesgo bajo,14-25%,"DAPM, curvas de nivel cada 10m",4,11211,Zonas urbanas discontinuas,ZUD,Ql/Kv,Lateritas Formacion Volcanica,3.393663932,-76.58450447,1312.049683,36.69968414,LA FONDA,2622320101,238,8/7/2019 0:00,8/7/2019 0:00,8/7/2019LA FONDA CANTA CLARO,-76.58450447,3.393663932,LA FONDA CANTA CLARO,0,0,0,0,16,32,94,416
238,239,4,Riesgo bajo,0 a 3%,"DAPM, curvas de nivel cada 10m",1,12111,Otras superficies artificiales con construcción,OICC,Qca2(RPan),Cono aluvial 2 rio Pance,3.339738677,-76.55165341,1083.33374,33.32062912,LA RIVERITA,2622310103,239,8/24/2018 0:00,8/24/2018 0:00,8/24/2018LA RIVERITA,-76.55165341,3.339738677,LA RIVERITA,1,1,0.9,0.9,4.9,30.8,53.2,135
239,240,4,Riesgo bajo,0 a 3%,"DAPM, curvas de nivel cada 10m",1,12211,Otras superficies artificiales sin construcción,OISC,Qca(RMel),Cono aluvial rio Melendez,3.387957299,-76.55136389,975.3961182,4.22939539,NAPOLES,2622330108,240,9/25/2019 0:00,9/25/2019 0:00,9/25/2019NAPOLES,-76.55136389,3.387957299,NAPOLES,3,11,13.3,101.8,114,114,117.9,207.1
240,241,7,Amenaza baja,14-25%,"DAPM, curvas de nivel cada 10m",4,31112,Bosque mixto denso bajo de tierra firme,BNDBAJ,TQj,Formacion Jamundi,3.338700538,-76.56221266,1132.905884,39.89579773,LA RIVERITA,2622310103,241,8/24/2018 0:00,8/24/2018 0:00,8/24/2018LA RIVERITA,-76.56221266,3.338700538,LA RIVERITA,1,1,0.9,0.9,4.9,30.8,53.2,135
241,242,4,Riesgo bajo,0 a 3%,"DAPM, curvas de nivel cada 10m",1,11111,Zonas urbanas continuas,ZUC,Qca,Conos aluviales,3.460278624,-76.53335205,983.1756592,14.60468864,COLEGIO SAN LUIS,2622400101,242,12/27/2016 0:00,12/27/2016 0:00,12/27/2016COLEGIO SAN LUIS,-76.53335205,3.460278624,COLEGIO SAN LUIS,0,0,0,0,0,0,119.7,119.7
242,243,4,Riesgo bajo,14-25%,"DAPM, curvas de nivel cada 10m",4,11111,Zonas urbanas continuas,ZUC,Kv,Formacion Volcanica,3.450376324,-76.5493279,1057.871826,8.79842186,EL ANCLA,2622420106,243,8/3/2019 0:00,8/3/2019 0:00,8/3/2019EL ANCLA,-76.5493279,3.450376324,EL ANCLA,1,4,4.4,5.4,6,7.5,84.9,217.4
243,244,7,Amenaza baja,0 a 3%,"DAPM, curvas de nivel cada 10m",1,31352,Bosque de guadua,BG,Qca2(RPan),Cono aluvial 2 rio Pance,3.344576141,-76.5565337,1104.144043,28.4318428,LA RIVERITA,2622310103,244,8/25/2017 0:00,8/25/2017 0:00,8/25/2017LA RIVERITA,-76.5565337,3.344576141,LA RIVERITA,0,1,20.7,49.2,56.8,86.7,141.5,262.2
244,245,4,Riesgo bajo,14-25%,"DAPM, curvas de nivel cada 10m",4,11211,Zonas urbanas discontinuas,ZUD,Kv,Formacion Volcanica,3.445917597,-76.54737722,1068.848633,40.45897675,PLANTA RIO CALI,2622400103,245,12/1/2014 0:00,12/1/2014 0:00,12/1/2014PLANTA RIO CALI,-76.54737722,3.445917597,PLANTA RIO CALI,0,0,81.4,85,110,211.8,456,465
245,246,7,Amenaza baja,14-25%,"DAPM, curvas de nivel cada 10m",4,32310,Vegetación secundaria o transición,VEGSEC,Kv,Formacion Volcanica,3.432920533,-76.55472449,1132.631348,17.75127792,LOS CRISTALES,2622330105,246,12/20/2013 0:00,12/20/2013 0:00,12/20/2013LOS CRISTALES,-76.55472449,3.432920533,LOS CRISTALES,0,0,7,7,59,105,252,423
246,247,4,Riesgo bajo,0 a 3%,"DAPM, curvas de nivel cada 10m",1,11111,Zonas urbanas continuas,ZUC,Qca(RMel),Cono aluvial rio Melendez,3.377237659,-76.55155961,998.37677,11.27419376,NAPOLES,2622330108,247,12/9/2019 0:00,12/9/2019 0:00,12/9/2019NAPOLES,-76.55155961,3.377237659,NAPOLES,0,5,6.9,22.7,36.3,71.4,238.5,367.8
247,248,7,Amenaza baja,0 a 3%,"DAPM, curvas de nivel cada 10m",1,23172,Pasto cultivado enmalezado,PCURA,TQj,Formacion Jamundi,3.310861469,-76.56038716,1077.980835,21.00655937,EL PALACIO,2622100102,248,12/27/2015 0:00,12/27/2015 0:00,12/27/2015EL PALACIO,-76.56038716,3.310861469,EL PALACIO,0,0,0,1,3,3,272.3,486.3
248,249,4,Riesgo bajo,14-25%,"DAPM, curvas de nivel cada 10m",4,11111,Zonas urbanas continuas,ZUC,TOg,Formacion Guachinte,3.414216835,-76.56311605,994.2575073,14.19788361,IDEAS,2622330111,249,8/21/2019 0:00,8/21/2019 0:00,8/21/2019IDEAS,-76.56311605,3.414216835,IDEAS,0,1,1.2,1.2,3.6,29.2,92.7,225.4
249,250,7,Amenaza baja,0 a 3%,"DAPM, curvas de nivel cada 10m",1,32211,Arbustal y matorral abierto bajo de tierra firme,ABAFBA,Qca2(RPan),Cono aluvial 2 rio Pance,3.311643216,-76.54359569,994.1732788,3.643045664,EL PALACIO,2622100102,250,8/28/2016 0:00,8/28/2016 0:00,8/28/2016EL PALACIO,-76.54359569,3.311643216,EL PALACIO,0,0,0,0,1,3,65,109
250,251,7,Amenaza baja,14-25%,"DAPM, curvas de nivel cada 10m",4,23170,Pasto cultivado,PCU,Qca2(RPan),Cono aluvial 2 rio Pance,3.346931961,-76.56441242,1137.155029,6.472352982,LA RIVERITA,2622310103,251,8/7/2017 0:00,8/7/2017 0:00,8/7/2017LA RIVERITA,-76.56441242,3.346931961,LA RIVERITA,0,0,0,0,0,53.1,165.7,290.7
251,252,7,Amenaza baja,14-25%,"DAPM, curvas de nivel cada 10m",4,23172,Pasto cultivado enmalezado,PCURA,TQj,Formacion Jamundi,3.308697274,-76.55796792,1042.424561,16.26605988,EL PALACIO,2622100102,252,12/6/2005 0:00,12/6/2005 0:00,12/6/2005EL PALACIO,-76.55796792,3.308697274,EL PALACIO,0,13,37,37,37,145,275,330
252,253,4,Riesgo bajo,14-25%,"DAPM, curvas de nivel cada 10m",4,23170,Pasto cultivado,PCU,Ql/Kv,Lateritas Formacion Volcanica,3.499295684,-76.58615349,1847.818115,22.40505791,AGUACATAL,2622420103,253,12/15/2015 0:00,12/15/2015 0:00,12/15/2015AGUACATAL,-76.58615349,3.499295684,AGUACATAL,5,5,4.6,4.6,24.8,100.2,135.2,142.2
253,254,7,Amenaza baja,14-25%,"DAPM, curvas de nivel cada 10m",4,31311,Bosque mixto fragmentado con pastos y cultivos,BNFPNC,TOf,Formacion Ferreira,3.355986325,-76.56390615,1119.911743,59.4994545,LA RIVERITA,2622310103,254,8/12/2019 0:00,8/12/2019 0:00,8/12/2019LA RIVERITA,-76.56390615,3.355986325,LA RIVERITA,0,0,0,0,0,37,148.4,401.5
254,255,7,Amenaza baja,14-25%,"DAPM, curvas de nivel cada 10m",4,31211,Bosque mixto abierto alto de tierra firme,BNAALT,TQj,Formacion Jamundi,3.332583322,-76.55845524,1101.572754,29.51818657,LA RIVERITA,2622310103,255,8/8/2019 0:00,8/8/2019 0:00,8/8/2019LA RIVERITA,-76.55845524,3.332583322,LA RIVERITA,0,0,0,0,26.1,42.1,208.5,427.6
255,256,7,Amenaza baja,14-25%,"DAPM, curvas de nivel cada 10m",4,23171,Pasto cultivado arbolado,PCUAR,Qca1(RPan),Cono aluvial 1 rio Pance,3.359199079,-76.5548254,1056.17041,10.8923645,LA RIVERITA,2622310103,256,2/15/2017 0:00,2/15/2017 0:00,2/15/2017LA RIVERITA,-76.5548254,3.359199079,LA RIVERITA,0,0,45,45,53.4,89.1,259.8,356.9
256,257,4,Riesgo bajo,14-25%,"DAPM, curvas de nivel cada 10m",4,11111,Zonas urbanas continuas,ZUC,Kv,Formacion Volcanica,3.470064276,-76.55812753,1128.931885,23.86010742,EL COLEGIO,2622420105,257,12/4/2016 0:00,12/4/2016 0:00,12/4/2016EL COLEGIO,-76.55812753,3.470064276,EL COLEGIO,1,2,20.5,20.9,71.5,159.4,349.1,462.2
257,258,7,Amenaza baja,14-25%,"DAPM, curvas de nivel cada 10m",4,23172,Pasto cultivado enmalezado,PCURA,TQj,Formacion Jamundi,3.309049168,-76.56690617,1072.623535,22.79998398,JAMUNDI,2622100202,258,12/2/2019 0:00,12/2/2019 0:00,12/2/2019EL PALACIO,-76.56690617,3.309049168,EL PALACIO,7,7,16,69,113,174,301,408
258,259,4,Riesgo bajo,0 a 3%,"DAPM, curvas de nivel cada 10m",1,11111,Zonas urbanas continuas,ZUC,Kv,Formacion Volcanica,3.442655025,-76.54317283,997.8312378,6.72910881,PLANTA RIO CALI,2622400103,259,12/20/2016 0:00,12/20/2016 0:00,12/20/2016PLANTA RIO CALI,-76.54317283,3.442655025,PLANTA RIO CALI,18,18,20,20,34.7,74.4,149.4,276.4
259,260,7,Amenaza baja,14-25%,"DAPM, curvas de nivel cada 10m",4,31211,Bosque mixto abierto alto de tierra firme,BNAALT,TQj,Formacion Jamundi,3.331349147,-76.55821808,1072.255859,46.11437988,LA RIVERITA,2622310103,260,2/22/2017 0:00,2/22/2017 0:00,2/22/2017LA RIVERITA,-76.55821808,3.331349147,LA RIVERITA,0,4,11.9,11.9,57,71.2,208.8,349.1
260,261,4,Riesgo bajo,0 a 3%,"DAPM, curvas de nivel cada 10m",1,11211,Zonas urbanas discontinuas,ZUD,Qca1(RPan),Cono aluvial 1 rio Pance,3.362398445,-76.55842322,1043.168091,9.084814072,LA RIVERITA,2622310103,261,3/15/2017 0:00,3/15/2017 0:00,3/15/2017LA RIVERITA,-76.55842322,3.362398445,LA RIVERITA,1,20,80.3,101.3,117,167.1,252.3,430.7
261,262,4,Riesgo bajo,14-25%,"DAPM, curvas de nivel cada 10m",4,31112,Bosque mixto denso bajo de tierra firme,BNDBAJ,Ql/Kv,Lateritas Formacion Volcanica,3.382073002,-76.57115809,1198.076416,50.7545433,NAPOLES,2622330108,262,12/13/2016 0:00,12/13/2016 0:00,12/13/2016NAPOLES,-76.57115809,3.382073002,NAPOLES,0,0,16.3,35.2,42.4,102.8,188.5,294.2
262,263,4,Riesgo bajo,14-25%,"DAPM, curvas de nivel cada 10m",4,11211,Zonas urbanas discontinuas,ZUD,Kv,Formacion Volcanica,3.399192916,-76.5694015,1179.464233,25.10481262,IDEAS,2622330111,263,12/28/2016 0:00,12/28/2016 0:00,12/28/2016IDEAS,-76.5694015,3.399192916,IDEAS,1,63,68.2,105.7,124.6,231.8,308.5,333.8
263,264,4,Riesgo bajo,14-25%,"DAPM, curvas de nivel cada 10m",4,32210,Arbustal y matorral abierto alto de tierra firme,ABAFAL,TQj,Formacion Jamundi,3.330804002,-76.59098026,1324.638184,19.95822716,PANCE - CHORRERA,2622110103,264,1/3/2019 0:00,1/3/2019 0:00,1/3/2019PANCE - CHORRERA,-76.59098026,3.330804002,PANCE - CHORRERA,0,0,0,0,0.4,128.8,347.8,659
264,265,7,Amenaza baja,0 a 3%,"DAPM, curvas de nivel cada 10m",1,23171,Pasto cultivado arbolado,PCUAR,Qca2(RPan),Cono aluvial 2 rio Pance,3.316282405,-76.54856346,1011.331299,10.2058382,EL PALACIO,2622100102,265,12/18/2015 0:00,12/18/2015 0:00,12/18/2015EL PALACIO,-76.54856346,3.316282405,EL PALACIO,1,1,3,3,3,46,350.3,499.3
265,266,7,Amenaza baja,14-25%,"DAPM, curvas de nivel cada 10m",4,31112,Bosque mixto denso bajo de tierra firme,BNDBAJ,TQj,Formacion Jamundi,3.311037444,-76.56855709,1100.158203,29.0291214,EL PALACIO,2622100102,266,12/15/2015 0:00,12/15/2015 0:00,12/15/2015EL PALACIO,-76.56855709,3.311037444,EL PALACIO,2,2,2,2,2,89,374.3,500.3
266,267,7,Amenaza baja,14-25%,"DAPM, curvas de nivel cada 10m",4,31112,Bosque mixto denso bajo de tierra firme,BNDBAJ,TQj,Formacion Jamundi,3.312691776,-76.57079486,1132.690186,31.08509064,PANCE - CHORRERA,2622110103,267,8/3/2016 0:00,8/3/2016 0:00,8/3/2016PANCE - CHORRERA,-76.57079486,3.312691776,PANCE - CHORRERA,0,0,0.2,21.8,28.8,51.8,178.6,340.8
267,268,7,Amenaza baja,0 a 3%,"DAPM, curvas de nivel cada 10m",1,23170,Pasto cultivado,PCU,TQj,Formacion Jamundi,3.292749725,-76.55621197,1001.548401,18.41129494,JAMUNDI,2622100202,268,12/11/2016 0:00,12/11/2016 0:00,12/11/2016EL PALACIO,-76.55621197,3.292749725,EL PALACIO,0,7,47,51,57,146,291,461
268,269,4,Riesgo bajo,14-25%,"DAPM, curvas de nivel cada 10m",4,31111,Bosque mixto denso alto de tierra firme,BNDALT,Ql/Kv,Lateritas Formacion Volcanica,3.525279897,-76.59957589,1735.019775,15.77875328,VILLA ARACELLY,2622420104,269,12/29/2016 0:00,12/29/2016 0:00,12/29/2016AGUACATAL,-76.59957589,3.525279897,AGUACATAL,1,17,17.6,90.2,92.6,169,305,487.2
269,270,7,Amenaza baja,14-25%,"DAPM, curvas de nivel cada 10m",4,12211,Otras superficies artificiales sin construcción,OISC,Ql/Kv,Lateritas Formacion Volcanica,3.379253233,-76.55410085,1041.842407,13.28306198,NAPOLES,2622330108,270,12/7/2019 0:00,12/7/2019 0:00,12/7/2019NAPOLES,-76.55410085,3.379253233,NAPOLES,3,5,20.3,25.2,35.8,70.6,251.9,365.9
270,271,4,Riesgo bajo,0 a 3%,"DAPM, curvas de nivel cada 10m",1,11111,Zonas urbanas continuas,ZUC,Qca(RMel),Cono aluvial rio Melendez,3.393090304,-76.55628517,973.2894287,3.669102669,NAPOLES,2622330108,271,12/9/2019 0:00,12/9/2019 0:00,12/9/2019NAPOLES,-76.55628517,3.393090304,NAPOLES,0,5,6.9,22.7,36.3,71.4,238.5,367.8
271,272,4,Riesgo bajo,0 a 3%,"DAPM, curvas de nivel cada 10m",1,11111,Zonas urbanas continuas,ZUC,Qca(RMel),Cono aluvial rio Melendez,3.416037282,-76.55607628,978.0981445,8.584516525,IDEAS,2622330111,272,8/30/2016 0:00,8/30/2016 0:00,8/30/2016IDEAS,-76.55607628,3.416037282,IDEAS,0,0,0.2,0.2,12.2,13.4,28.6,173.7
272,273,7,Amenaza baja,0 a 3%,"DAPM, curvas de nivel cada 10m",1,41120,Ríos,RIO,Qca2(RPan),Cono aluvial 2 rio Pance,3.347882045,-76.57526531,1169.71106,9.114147186,LA RIVERITA,2622310103,273,8/1/2019 0:00,8/1/2019 0:00,8/1/2019LA RIVERITA,-76.57526531,3.347882045,LA RIVERITA,0,0,0.2,26.2,31.6,55.6,301.3,451.6
273,274,4,Riesgo bajo,0 a 3%,"DAPM, curvas de nivel cada 10m",1,32310,Vegetación secundaria o transición,VEGSEC,Kv,Formacion Volcanica,3.434718253,-76.55011307,1043.167358,15.88753223,PLANTA RIO CALI,2622400103,274,12/10/2016 0:00,12/10/2016 0:00,12/10/2016PLANTA RIO CALI,-76.55011307,3.434718253,PLANTA RIO CALI,2,5,14.5,46.6,47.6,72.1,162.9,258.9
274,275,4,Riesgo bajo,0 a 3%,"DAPM, curvas de nivel cada 10m",1,11111,Zonas urbanas continuas,ZUC,Qca(RMel),Cono aluvial rio Melendez,3.391226029,-76.55643388,973.211731,12.89175129,NAPOLES,2622330108,275,12/6/2019 0:00,12/6/2019 0:00,12/6/2019NAPOLES,-76.55643388,3.391226029,NAPOLES,0,2,17.9,22.3,41.1,70.2,249,363
275,276,7,Amenaza baja,14-25%,"DAPM, curvas de nivel cada 10m",4,31311,Bosque mixto fragmentado con pastos y cultivos,BNFPNC,TOf,Formacion Ferreira,3.357660657,-76.56511469,1062.531494,9.301513672,LA RIVERITA,2622310103,276,12/21/2017 0:00,12/21/2017 0:00,12/21/2017LA RIVERITA,-76.56511469,3.357660657,LA RIVERITA,0,0,0,10.4,25.8,200.8,316.2,493.4
276,277,7,Amenaza baja,14-25%,"DAPM, curvas de nivel cada 10m",4,23172,Pasto cultivado enmalezado,PCURA,TQj,Formacion Jamundi,3.320827761,-76.5642096,1167.014282,20.93723869,LA RIVERITA,2622310103,277,2/26/2017 0:00,2/26/2017 0:00,2/26/2017LA RIVERITA,-76.5642096,3.320827761,LA RIVERITA,0,4,7.8,8.2,72.7,92.5,212.3,336.7
277,278,4,Riesgo bajo,14-25%,"DAPM, curvas de nivel cada 10m",4,31112,Bosque mixto denso bajo de tierra firme,BNDBAJ,Qca1(RPan),Cono aluvial 1 rio Pance,3.361629198,-76.54715718,1015.00885,10.10603619,LA RIVERITA,2622310103,278,8/22/2018 0:00,8/22/2018 0:00,8/22/2018LA RIVERITA,-76.54715718,3.361629198,LA RIVERITA,0,0,0,3.9,3.9,29.8,53.1,143.1
278,279,7,Amenaza baja,0 a 3%,"DAPM, curvas de nivel cada 10m",1,12111,Otras superficies artificiales con construcción,OICC,Qca1(RPan),Cono aluvial 1 rio Pance,3.352086096,-76.56003671,1112.95166,26.72960281,LA RIVERITA,2622310103,279,12/4/2018 0:00,12/4/2018 0:00,12/4/2018LA RIVERITA,-76.56003671,3.352086096,LA RIVERITA,0,1,69.1,119,205,275.1,326.7,377.5
279,280,7,Amenaza baja,14-25%,"DAPM, curvas de nivel cada 10m",4,32211,Arbustal y matorral abierto bajo de tierra firme,ABAFBA,TQj,Formacion Jamundi,3.300967047,-76.56063237,1013.302002,43.15719986,JAMUNDI,2622100202,280,12/31/2015 0:00,12/31/2015 0:00,12/31/2015EL PALACIO,-76.56063237,3.300967047,EL PALACIO,0,0,0,0,5,7,137.3,464.3
280,281,7,Amenaza baja,14-25%,"DAPM, curvas de nivel cada 10m",4,31212,Bosque mixto abierto bajo de tierra firme,BNABAJ,TQj,Formacion Jamundi,3.325169485,-76.55499252,1050.452026,12.34817886,LA RIVERITA,2622310103,281,7/19/2017 0:00,7/19/2017 0:00,7/19/2017LA RIVERITA,-76.55499252,3.325169485,LA RIVERITA,6,47,53,53,53.1,112,191.6,488
281,282,4,Riesgo bajo,0 a 3%,"DAPM, curvas de nivel cada 10m",1,11111,Zonas urbanas continuas,ZUC,Kv,Formacion Volcanica,3.447845867,-76.53746611,1003.794495,7.771973133,COLEGIO SAN JUAN BOSCO,2622330101,282,8/14/2015 0:00,8/14/2015 0:00,8/14/2015PLANTA RIO CALI,-76.53746611,3.447845867,PLANTA RIO CALI,2,6,15.4,15.4,22,56,54.8,99.2
282,283,4,Riesgo bajo,14-25%,"DAPM, curvas de nivel cada 10m",4,23171,Pasto cultivado arbolado,PCUAR,Ql/Kv,Lateritas Formacion Volcanica,3.522212919,-76.60896296,1814.615479,12.78972626,SAN PABLO,2622420102,283,8/19/2018 0:00,8/19/2018 0:00,8/19/2018AGUACATAL,-76.60896296,3.522212919,AGUACATAL,0,2,2.4,2.4,2.4,75.8,91,348.6
283,284,7,Amenaza baja,0 a 3%,"DAPM, curvas de nivel cada 10m",1,12111,Otras superficies artificiales con construcción,OICC,Qca2(RPan),Cono aluvial 2 rio Pance,3.331034234,-76.55029278,1047.817993,3.381697178,LA RIVERITA,2622310103,284,9/22/2018 0:00,9/22/2018 0:00,9/22/2018LA RIVERITA,-76.55029278,3.331034234,LA RIVERITA,0,0,1.4,46.5,46.5,50.8,80.6,103.2
284,285,7,Amenaza baja,0 a 3%,"DAPM, curvas de nivel cada 10m",1,23170,Pasto cultivado,PCU,TQj,Formacion Jamundi,3.322902289,-76.55626342,1075.406006,24.65237236,LA RIVERITA,2622310103,285,9/20/2018 0:00,9/20/2018 0:00,9/20/2018LA RIVERITA,-76.55626342,3.322902289,LA RIVERITA,0,0,32.7,46.5,46.5,50.8,80.8,103.9
285,286,7,Amenaza baja,14-25%,"DAPM, curvas de nivel cada 10m",4,31111,Bosque mixto denso alto de tierra firme,BNDALT,TQj,Formacion Jamundi,3.343510669,-76.56459205,1157.735596,7.161063671,LA RIVERITA,2622310103,286,9/19/2018 0:00,9/19/2018 0:00,9/19/2018LA RIVERITA,-76.56459205,3.343510669,LA RIVERITA,0,0,46.5,46.5,46.5,50.8,80.8,104.7
286,287,4,Riesgo bajo,14-25%,"DAPM, curvas de nivel cada 10m",4,23172,Pasto cultivado enmalezado,PCURA,Ql/Kv,Lateritas Formacion Volcanica,3.394609284,-76.58740649,1307.866089,27.47784424,LA FONDA,2622320101,287,10/1/2014 0:00,10/1/2014 0:00,10/1/2014LA FONDA CANTA CLARO,-76.58740649,3.394609284,LA FONDA CANTA CLARO,0,0,0,67,94,101,118,118
287,288,7,Amenaza baja,14-25%,"DAPM, curvas de nivel cada 10m",4,21130,Pino,PIN,Ql/Kv,Lateritas Formacion Volcanica,3.36517684,-76.6019106,1690.72937,14.36381626,LILI - SAN SEBASTIAN,2622310201,288,8/11/2014 0:00,8/11/2014 0:00,8/11/2014LILI - SAN SEBASTIAN,-76.6019106,3.36517684,LILI - SAN SEBASTIAN,0,12,17,17,17,25,146,170
288,289,4,Riesgo bajo,14-25%,"DAPM, curvas de nivel cada 10m",4,11111,Zonas urbanas continuas,ZUC,Kv,Formacion Volcanica,3.439332303,-76.54376439,995.0872192,7.782928944,PLANTA RIO CALI,2622400103,289,8/2/2004 0:00,8/2/2004 0:00,8/2/2004PLANTA RIO CALI,-76.54376439,3.439332303,PLANTA RIO CALI,0,0,6,28,30,53,111,223
289,290,4,Riesgo bajo,0 a 3%,"DAPM, curvas de nivel cada 10m",1,11211,Zonas urbanas discontinuas,ZUD,Ql/Kv,Lateritas Formacion Volcanica,3.412625731,-76.57108931,1043.085571,13.9525795,IDEAS,2622330111,290,8/5/2016 0:00,8/5/2016 0:00,8/5/2016IDEAS,-76.57108931,3.412625731,IDEAS,0,0,0,22.2,24.1,24.2,137.9,326.9
290,291,7,Amenaza baja,0 a 3%,"DAPM, curvas de nivel cada 10m",1,23170,Pasto cultivado,PCU,Qca1(RPan),Cono aluvial 1 rio Pance,3.367565837,-76.5536601,1020.099487,10.19723606,LA RIVERITA,2622310103,291,8/27/2018 0:00,8/27/2018 0:00,8/27/2018LA RIVERITA,-76.5536601,3.367565837,LA RIVERITA,0,0,1,1,4.9,30.3,53.2,135.1
291,292,4,Riesgo bajo,14-25%,"DAPM, curvas de nivel cada 10m",4,11111,Zonas urbanas continuas,ZUC,Kv,Formacion Volcanica,3.440231096,-76.54093651,1004.852173,23.73952675,PLANTA RIO CALI,2622400103,292,9/30/2018 0:00,9/30/2018 0:00,9/30/2018PLANTA RIO CALI,-76.54093651,3.440231096,PLANTA RIO CALI,0,0,0.1,0.1,0.2,0.6,5.6,7.9
292,293,4,Riesgo bajo,14-25%,"DAPM, curvas de nivel cada 10m",4,31111,Bosque mixto denso alto de tierra firme,BNDALT,Kv,Formacion Volcanica,3.488348867,-76.62198077,1995.63269,67.04980469,FELIDIA,2622400107,293,9/14/2018 0:00,9/14/2018 0:00,9/14/2018FELIDIA,-76.62198077,3.488348867,FELIDIA,6,23,27.4,27.4,53.6,56.8,159,226
293,294,4,Riesgo bajo,0 a 3%,"DAPM, curvas de nivel cada 10m",1,11111,Zonas urbanas continuas,ZUC,Qca(RMel),Cono aluvial rio Melendez,3.391553703,-76.55441782,974.0512085,11.25243759,NAPOLES,2622330108,294,8/4/2017 0:00,8/4/2017 0:00,8/4/2017NAPOLES,-76.55441782,3.391553703,NAPOLES,0,0,0.1,0.1,0.1,23.7,137.8,271.7
294,295,4,Riesgo bajo,0 a 3%,"DAPM, curvas de nivel cada 10m",1,23171,Pasto cultivado arbolado,PCUAR,Kv,Formacion Volcanica,3.493135777,-76.62018575,1942.332642,28.91055298,AGUACATAL,2622420103,295,8/21/2018 0:00,8/21/2018 0:00,8/21/2018AGUACATAL,-76.62018575,3.493135777,AGUACATAL,0,0,1.8,2.4,2.4,70.6,91,346.6
295,296,4,Riesgo bajo,14-25%,"DAPM, curvas de nivel cada 10m",4,11111,Zonas urbanas continuas,ZUC,Kv,Formacion Volcanica,3.447223934,-76.5526408,1098.426392,21.27012825,PLANTA RIO CALI,2622400103,296,8/12/2005 0:00,8/12/2005 0:00,8/12/2005PLANTA RIO CALI,-76.5526408,3.447223934,PLANTA RIO CALI,0,0,2,11,11,21,140,333
296,297,4,Riesgo bajo,14-25%,"DAPM, curvas de nivel cada 10m",4,23170,Pasto cultivado,PCU,Ql/Kv,Lateritas Formacion Volcanica,3.526316344,-76.59678173,1798.404297,29.50045967,VILLA ARACELLY,2622420104,297,9/11/2008 0:00,9/11/2008 0:00,9/11/2008AGUACATAL,-76.59678173,3.526316344,AGUACATAL,0,0,0,24,31,76,143,262
297,298,4,Riesgo bajo,14-25%,"DAPM, curvas de nivel cada 10m",4,11211,Zonas urbanas discontinuas,ZUD,Ql/Kv,Lateritas Formacion Volcanica,3.365178444,-76.55956758,1060.142578,40.16719055,LA RIVERITA,2622310103,298,9/21/2018 0:00,9/21/2018 0:00,9/21/2018LA RIVERITA,-76.55956758,3.365178444,LA RIVERITA,0,0,7.7,46.5,46.5,50.8,80.6,103.9
298,299,7,Amenaza baja,14-25%,"DAPM, curvas de nivel cada 10m",4,24140,Misceláneo de cultivos y espacios naturales,MSCULV,TOg,Formacion Guachinte,3.373733249,-76.59827839,1602.878174,26.36684799,LILI - SAN SEBASTIAN,2622310201,299,8/11/2016 0:00,8/11/2016 0:00,8/11/2016LILI - SAN SEBASTIAN,-76.59827839,3.373733249,LILI - SAN SEBASTIAN,0,0,0.4,0.4,0.4,33,93.2,247.8
299,300,4,Riesgo bajo,14-25%,"DAPM, curvas de nivel cada 10m",4,11111,Zonas urbanas continuas,ZUC,TOg,Formacion Guachinte,3.415114676,-76.56289376,994.5440674,15.4314661,IDEAS,2622330111,300,8/12/2016 0:00,8/12/2016 0:00,8/12/2016IDEAS,-76.56289376,3.415114676,IDEAS,0,0,1.2,1.2,1.3,25.4,76.7,249.4
300,301,4,Riesgo bajo,14-25%,"DAPM, curvas de nivel cada 10m",4,31112,Bosque mixto denso bajo de tierra firme,BNDBAJ,Ql/Kv,Lateritas Formacion Volcanica,3.406929647,-76.56966558,1035.927246,68.7237854,IDEAS,2622330111,301,8/2/2016 0:00,8/2/2016 0:00,8/2/2016IDEAS,-76.56966558,3.406929647,IDEAS,0,0,22.2,23.9,24.1,26.7,139.3,346.8
301,302,7,Amenaza baja,14-25%,"DAPM, curvas de nivel cada 10m",4,31211,Bosque mixto abierto alto de tierra firme,BNAALT,Kv,Formacion Volcanica,3.365709702,-76.60899994,1769.608276,25.43001556,EL CARMELO,2622320104,302,8/11/2015 0:00,8/11/2015 0:00,8/11/2015EL CARMELO,-76.60899994,3.365709702,EL CARMELO,0,0,1.4,1.4,32.6,41.8,69.4,145.4
302,303,4,Riesgo bajo,14-25%,"DAPM, curvas de nivel cada 10m",4,11111,Zonas urbanas continuas,ZUC,Kv,Formacion Volcanica,3.443829667,-76.54695173,1014.3479,24.16401672,PLANTA RIO CALI,2622400103,303,9/6/2015 0:00,9/6/2015 0:00,9/6/2015PLANTA RIO CALI,-76.54695173,3.443829667,PLANTA RIO CALI,0,0,0,0,0.7,21.3,60.7,64.9
303,304,7,Amenaza baja,14-25%,"DAPM, curvas de nivel cada 10m",4,32210,Arbustal y matorral abierto alto de tierra firme,ABAFAL,TQj,Formacion Jamundi,3.315695559,-76.56535441,1136.439209,19.9131012,LA RIVERITA,2622310103,304,8/29/2018 0:00,8/29/2018 0:00,8/29/2018LA RIVERITA,-76.56535441,3.315695559,LA RIVERITA,0,0,1,1,1,29.7,53.2,130.3
304,305,4,Riesgo bajo,14-25%,"DAPM, curvas de nivel cada 10m",4,11211,Zonas urbanas discontinuas,ZUD,Kv,Formacion Volcanica,3.438449836,-76.55615869,1189.263794,27.96790314,PLANTA RIO CALI,2622400103,305,8/2/2016 0:00,8/2/2016 0:00,8/2/2016PLANTA RIO CALI,-76.55615869,3.438449836,PLANTA RIO CALI,0,0,0.4,0.5,0.5,1.2,10.1,28.7
305,306,7,Amenaza baja,0 a 3%,"DAPM, curvas de nivel cada 10m",1,31112,Bosque mixto denso bajo de tierra firme,BNDBAJ,TQj,Formacion Jamundi,3.312023942,-76.56843515,1096.2948,21.51670837,EL PALACIO,2622100102,306,8/12/2014 0:00,8/12/2014 0:00,8/12/2014EL PALACIO,-76.56843515,3.312023942,EL PALACIO,0,3,4,4,4,10,49,120
306,307,7,Amenaza baja,0 a 3%,"DAPM, curvas de nivel cada 10m",1,31111,Bosque mixto denso alto de tierra firme,BNDALT,Kv,Formacion Volcanica,3.412173907,-76.56295111,981.8302612,3.050461769,IDEAS,2622330111,307,8/14/2016 0:00,8/14/2016 0:00,8/14/2016IDEAS,-76.56295111,3.412173907,IDEAS,0,0,0,1.2,1.2,25.3,76.7,249.4
307,308,7,Amenaza baja,14-25%,"DAPM, curvas de nivel cada 10m",4,23170,Pasto cultivado,PCU,Kv,Formacion Volcanica,3.448895661,-76.57449012,1098.792969,49.38295364,CALI - BOCATOMA,2622400106,308,8/7/2020 0:00,8/7/2020 0:00,8/7/2020CALI - BOCATOMA,-76.57449012,3.448895661,CALI - BOCATOMA,0,0,0,0,0,22.8,76.8,182
308,309,4,Riesgo bajo,0 a 3%,"DAPM, curvas de nivel cada 10m",1,31112,Bosque mixto denso bajo de tierra firme,BNDBAJ,Ql/Kv,Lateritas Formacion Volcanica,3.381673699,-76.57548649,1207.059204,14.45394611,LA FONDA,2622320101,309,9/5/2016 0:00,9/5/2016 0:00,9/5/2016LA FONDA CANTA CLARO,-76.57548649,3.381673699,LA FONDA CANTA CLARO,0,10,20,20,37,37,47,182
309,310,4,Riesgo bajo,14-25%,"DAPM, curvas de nivel cada 10m",4,11111,Zonas urbanas continuas,ZUC,Kv,Formacion Volcanica,3.448690904,-76.54808365,1088.330811,17.43324089,PLANTA RIO CALI,2622400103,310,8/18/2016 0:00,8/18/2016 0:00,8/18/2016PLANTA RIO CALI,-76.54808365,3.448690904,PLANTA RIO CALI,0,0,0,0,0,0.5,8.5,19.5
310,311,7,Amenaza baja,14-25%,"DAPM, curvas de nivel cada 10m",4,23171,Pasto cultivado arbolado,PCUAR,Qca1(RPan),Cono aluvial 1 rio Pance,3.355186239,-76.55347722,1077.534058,6.768587589,LA RIVERITA,2622310103,311,9/4/2018 0:00,9/4/2018 0:00,9/4/2018LA RIVERITA,-76.55347722,3.355186239,LA RIVERITA,0,0,3.3,3.3,4.3,8.2,44.2,93.4
311,312,4,Riesgo bajo,0 a 3%,"DAPM, curvas de nivel cada 10m",1,12111,Otras superficies artificiales con construcción,OICC,Ql/Kv,Lateritas Formacion Volcanica,3.386555506,-76.553308,981.3627319,7.350065708,NAPOLES,2622330108,312,9/4/2019 0:00,9/4/2019 0:00,9/4/2019NAPOLES,-76.553308,3.386555506,NAPOLES,0,0,0,0,0.3,3.3,54,140.8
312,313,7,Amenaza baja,14-25%,"DAPM, curvas de nivel cada 10m",4,31212,Bosque mixto abierto bajo de tierra firme,BNABAJ,TQj,Formacion Jamundi,3.325837482,-76.56054414,1079.889038,17.34329605,LA RIVERITA,2622310103,313,8/20/2018 0:00,8/20/2018 0:00,8/20/2018LA RIVERITA,-76.56054414,3.325837482,LA RIVERITA,0,0,2,3.9,3.9,30,53.9,239.3
313,314,4,Riesgo bajo,0 a 3%,"DAPM, curvas de nivel cada 10m",1,12211,Otras superficies artificiales sin construcción,OISC,Qal,Depositos aluviales,3.413007812,-76.55790154,976.93573,10.76036072,IDEAS,2622330111,314,8/5/2016 0:00,8/5/2016 0:00,8/5/2016IDEAS,-76.55790154,3.413007812,IDEAS,0,0,0,22.2,24.1,24.2,137.9,326.9
314,315,7,Amenaza baja,14-25%,"DAPM, curvas de nivel cada 10m",4,31111,Bosque mixto denso alto de tierra firme,BNDALT,TQj,Formacion Jamundi,3.344070957,-76.56154676,1148.995728,32.60607529,LA RIVERITA,2622310103,315,8/14/2018 0:00,8/14/2018 0:00,8/14/2018LA RIVERITA,-76.56154676,3.344070957,LA RIVERITA,2,4,3.9,8.8,28.7,32.4,78.8,259.1
315,316,7,Amenaza baja,14-25%,"DAPM, curvas de nivel cada 10m",4,31212,Bosque mixto abierto bajo de tierra firme,BNABAJ,Qca2(RPan),Cono aluvial 2 rio Pance,3.348081318,-76.57639281,1181.661743,17.57177162,LA RIVERITA,2622310103,316,8/15/2019 0:00,8/15/2019 0:00,8/15/2019LA RIVERITA,-76.57639281,3.348081318,LA RIVERITA,0,0,0,0,0,31.6,147.9,380.9
316,317,4,Riesgo bajo,14-25%,"DAPM, curvas de nivel cada 10m",4,23171,Pasto cultivado arbolado,PCUAR,Ql/Kv,Lateritas Formacion Volcanica,3.497174243,-76.6180677,1890.687622,19.5093956,AGUACATAL,2622420103,317,8/31/2019 0:00,8/31/2019 0:00,8/31/2019AGUACATAL,-76.6180677,3.497174243,AGUACATAL,0,0,0,0,0.4,12.6,33.4,138.8
317,318,7,Amenaza baja,0 a 3%,"DAPM, curvas de nivel cada 10m",1,23171,Pasto cultivado arbolado,PCUAR,Qca2(RPan),Cono aluvial 2 rio Pance,3.315377774,-76.54949228,1010.570251,12.94794464,EL PALACIO,2622100102,318,8/10/2018 0:00,8/10/2018 0:00,8/10/2018EL PALACIO,-76.54949228,3.315377774,EL PALACIO,0,0,0,22,64,93,138,340
318,319,7,Amenaza baja,14-25%,"DAPM, curvas de nivel cada 10m",4,32210,Arbustal y matorral abierto alto de tierra firme,ABAFAL,TQj,Formacion Jamundi,3.318904713,-76.56715489,1162.220459,12.44734573,LA RIVERITA,2622310103,319,8/15/2018 0:00,8/15/2018 0:00,8/15/2018LA RIVERITA,-76.56715489,3.318904713,LA RIVERITA,0,4,3.9,3.9,28.7,32.4,78.8,252.8
319,320,4,Riesgo bajo,14-25%,"DAPM, curvas de nivel cada 10m",4,31211,Bosque mixto abierto alto de tierra firme,BNAALT,TOg,Formacion Guachinte,3.49773281,-76.55852226,1398.259766,19.11074257,AGUACATAL-MONTEBELLO,2622420101,320,8/10/2004 0:00,8/10/2004 0:00,8/10/2004AGUACATAL-MONTEBELLO,-76.55852226,3.49773281,AGUACATAL-MONTEBELLO,0,0,0,0,0,8,33,189
320,321,7,Amenaza baja,14-25%,"DAPM, curvas de nivel cada 10m",4,31311,Bosque mixto fragmentado con pastos y cultivos,BNFPNC,TOf,Formacion Ferreira,3.355980791,-76.5629978,1109.234741,25.43808746,LA RIVERITA,2622310103,321,8/7/2018 0:00,8/7/2018 0:00,8/7/2018LA RIVERITA,-76.5629978,3.355980791,LA RIVERITA,0,5,24.8,25.4,25.9,34.3,79.9,322.6
321,322,7,Amenaza baja,0 a 3%,"DAPM, curvas de nivel cada 10m",1,31211,Bosque mixto abierto alto de tierra firme,BNAALT,Kv,Formacion Volcanica,3.450547982,-76.57950672,1113.445068,17.43528748,CALI - BOCATOMA,2622400106,322,9/16/2015 0:00,9/16/2015 0:00,9/16/2015CALI - BOCATOMA,-76.57950672,3.450547982,CALI - BOCATOMA,0,0,0,2.2,3,3.2,62.2,64.8
322,323,7,Amenaza baja,14-25%,"DAPM, curvas de nivel cada 10m",4,31211,Bosque mixto abierto alto de tierra firme,BNAALT,Kv,Formacion Volcanica,3.365537685,-76.60566649,1722.909058,17.78724289,LILI - SAN SEBASTIAN,2622310201,323,8/1/2016 0:00,8/1/2016 0:00,8/1/2016LILI - SAN SEBASTIAN,-76.60566649,3.365537685,LILI - SAN SEBASTIAN,0,0,15.6,27.4,32.4,44.6,166,357.4
323,324,4,Riesgo bajo,14-25%,"DAPM, curvas de nivel cada 10m",4,31112,Bosque mixto denso bajo de tierra firme,BNDBAJ,Qca1(RPan),Cono aluvial 1 rio Pance,3.358897167,-76.54598219,1028.093506,12.37767601,LA RIVERITA,2622310103,324,8/20/2018 0:00,8/20/2018 0:00,8/20/2018LA RIVERITA,-76.54598219,3.358897167,LA RIVERITA,0,0,2,3.9,3.9,30,53.9,239.3
324,325,7,Amenaza baja,14-25%,"DAPM, curvas de nivel cada 10m",4,23171,Pasto cultivado arbolado,PCUAR,TQj,Formacion Jamundi,3.30938273,-76.57159558,1094.031372,17.56897354,PANCE - CHORRERA,2622110103,325,8/11/2012 0:00,8/11/2012 0:00,8/11/2012PANCE - CHORRERA,-76.57159558,3.30938273,PANCE - CHORRERA,2,2,2,2,35,64,69,390
325,326,7,Amenaza baja,0 a 3%,"DAPM, curvas de nivel cada 10m",1,23171,Pasto cultivado arbolado,PCUAR,Qca2(RPan),Cono aluvial 2 rio Pance,3.313651934,-76.54711905,1006.520874,9.845290184,EL PALACIO,2622100102,326,9/3/2016 0:00,9/3/2016 0:00,9/3/2016EL PALACIO,-76.54711905,3.313651934,EL PALACIO,0,12,25,25,25,28,54,130
326,327,7,Amenaza baja,0 a 3%,"DAPM, curvas de nivel cada 10m",1,23171,Pasto cultivado arbolado,PCUAR,Qca2(RPan),Cono aluvial 2 rio Pance,3.312805086,-76.54703838,1004.06665,6.960438728,EL PALACIO,2622100102,327,9/9/2018 0:00,9/9/2018 0:00,9/9/2018EL PALACIO,-76.54703838,3.312805086,EL PALACIO,0,0,0,0,0,25,118,163
327,328,7,Amenaza baja,0 a 3%,"DAPM, curvas de nivel cada 10m",1,23170,Pasto cultivado,PCU,Kv,Formacion Volcanica,3.368237031,-76.60474814,1774.016602,20.66901779,LILI - SAN SEBASTIAN,2622310201,328,8/16/2016 0:00,8/16/2016 0:00,8/16/2016LILI - SAN SEBASTIAN,-76.60474814,3.368237031,LILI - SAN SEBASTIAN,0,0,0.4,0.8,1,33.4,87.8,237.8
328,329,4,Riesgo bajo,0 a 3%,"DAPM, curvas de nivel cada 10m",1,11111,Zonas urbanas continuas,ZUC,Qca(RMel),Cono aluvial rio Melendez,3.389878911,-76.55305706,973.5373535,8.925033569,NAPOLES,2622330108,329,9/2/2019 0:00,9/2/2019 0:00,9/2/2019NAPOLES,-76.55305706,3.389878911,NAPOLES,0,0,0,0,2.5,3.3,57.1,146
329,330,4,Riesgo bajo,0 a 3%,"DAPM, curvas de nivel cada 10m",1,11211,Zonas urbanas discontinuas,ZUD,Ql/Kv,Lateritas Formacion Volcanica,3.391980599,-76.58724944,1313.153198,10.21830082,LA FONDA,2622320101,330,9/20/2003 0:00,9/20/2003 0:00,9/20/2003LA FONDA CANTA CLARO,-76.58724944,3.391980599,LA FONDA CANTA CLARO,0,0,0,5,50,51,76,105
330,331,4,Riesgo bajo,14-25%,"DAPM, curvas de nivel cada 10m",4,11111,Zonas urbanas continuas,ZUC,Ql/Kv,Lateritas Formacion Volcanica,3.372202413,-76.54979613,1010.538513,33.02156448,NAPOLES,2622330108,331,8/30/2019 0:00,8/30/2019 0:00,8/30/2019NAPOLES,-76.54979613,3.372202413,NAPOLES,0,0,0,0.3,2.5,3.9,57.1,146.3
331,332,4,Riesgo bajo,0 a 3%,"DAPM, curvas de nivel cada 10m",1,12111,Otras superficies artificiales con construcción,OICC,Qca2(RPan),Cono aluvial 2 rio Pance,3.310771882,-76.54769662,1001.350159,5.674838066,EL PALACIO,2622100102,332,8/19/2015 0:00,8/19/2015 0:00,8/19/2015EL PALACIO,-76.54769662,3.310771882,EL PALACIO,0,0,36,36,36,46,81,102
332,333,4,Riesgo bajo,14-25%,"DAPM, curvas de nivel cada 10m",4,11111,Zonas urbanas continuas,ZUC,Ql/Kv,Lateritas Formacion Volcanica,3.385916086,-76.55729372,997.2584839,17.76845551,NAPOLES,2622330108,333,8/3/2019 0:00,8/3/2019 0:00,8/3/2019NAPOLES,-76.55729372,3.385916086,NAPOLES,0,1,0.6,28.4,43,53.8,142.7,333.9
333,334,7,Amenaza baja,0 a 3%,"DAPM, curvas de nivel cada 10m",1,31311,Bosque mixto fragmentado con pastos y cultivos,BNFPNC,Qca1(RPan),Cono aluvial 1 rio Pance,3.363315812,-76.55417037,1051.084961,7.006042004,LA RIVERITA,2622310103,334,8/4/2017 0:00,8/4/2017 0:00,8/4/2017LA RIVERITA,-76.55417037,3.363315812,LA RIVERITA,0,0,0,0,0,53.1,181.4,345.8
334,335,4,Riesgo bajo,14-25%,"DAPM, curvas de nivel cada 10m",4,11211,Zonas urbanas discontinuas,ZUD,Ql/Kv,Lateritas Formacion Volcanica,3.432073356,-76.59191641,1476.621338,23.78432083,YANACONAS,2622410102,335,8/12/2015 0:00,8/12/2015 0:00,8/12/2015YANACONAS,-76.59191641,3.432073356,YANACONAS,0,0,2,2,10,28,32,116
335,336,4,Riesgo bajo,14-25%,"DAPM, curvas de nivel cada 10m",4,31112,Bosque mixto denso bajo de tierra firme,BNDBAJ,Qca1(RPan),Cono aluvial 1 rio Pance,3.361628465,-76.54527918,1007.344543,31.93451118,LA RIVERITA,2622310103,336,8/30/2018 0:00,8/30/2018 0:00,8/30/2018LA RIVERITA,-76.54527918,3.361628465,LA RIVERITA,0,0,1,1,4.2,32.9,53.2,130.1
336,337,4,Riesgo bajo,0 a 3%,"DAPM, curvas de nivel cada 10m",1,11211,Zonas urbanas discontinuas,ZUD,TOg,Formacion Guachinte,3.368774368,-76.56838635,1098.779663,43.68172455,LA RIVERITA,2622310103,337,9/16/2018 0:00,9/16/2018 0:00,9/16/2018LA RIVERITA,-76.56838635,3.368774368,LA RIVERITA,1,33,46.5,46.5,46.6,50.8,83.2,107.1
337,338,4,Riesgo bajo,0 a 3%,"DAPM, curvas de nivel cada 10m",1,11111,Zonas urbanas continuas,ZUC,Kv,Formacion Volcanica,3.448990222,-76.53742585,1005.058899,4.037531853,COLEGIO SAN JUAN BOSCO,2622330101,338,8/9/2019 0:00,8/9/2019 0:00,8/9/2019PLANTA RIO CALI,-76.53742585,3.448990222,PLANTA RIO CALI,0,0,1.9,2,3,25.1,94.5,309.2
338,339,4,Riesgo bajo,14-25%,"DAPM, curvas de nivel cada 10m",4,11111,Zonas urbanas continuas,ZUC,Kv,Formacion Volcanica,3.450693136,-76.56202723,1110.488647,38.64671707,CALI - BOCATOMA,2622400106,339,8/14/2016 0:00,8/14/2016 0:00,8/14/2016CALI - BOCATOMA,-76.56202723,3.450693136,CALI - BOCATOMA,0,0,0,0,0,8.4,92.6,221.4
339,340,4,Riesgo bajo,14-25%,"DAPM, curvas de nivel cada 10m",4,11111,Zonas urbanas continuas,ZUC,Ql/Kv,Lateritas Formacion Volcanica,3.393908298,-76.55937735,993.4919434,20.03730774,NAPOLES,2622330108,340,8/20/2019 0:00,8/20/2019 0:00,8/20/2019NAPOLES,-76.55937735,3.393908298,NAPOLES,0,2,2.2,2.2,3.3,34.4,103.8,235.5
340,341,4,Riesgo bajo,14-25%,"DAPM, curvas de nivel cada 10m",4,11211,Zonas urbanas discontinuas,ZUD,Kv,Formacion Volcanica,3.408829568,-76.5651074,996.5220337,18.61285019,IDEAS,2622330111,341,8/18/2016 0:00,8/18/2016 0:00,8/18/2016IDEAS,-76.5651074,3.408829568,IDEAS,0,0,0,0,1.2,25.3,61.4,232.8
341,342,4,Riesgo bajo,0 a 3%,"DAPM, curvas de nivel cada 10m",1,11111,Zonas urbanas continuas,ZUC,Qca(RMel),Cono aluvial rio Melendez,3.409174634,-76.55578948,977.6685791,9.261695862,IDEAS,2622330111,342,9/7/2016 0:00,9/7/2016 0:00,9/7/2016IDEAS,-76.55578948,3.409174634,IDEAS,0,17,29.8,41.8,50.9,50.9,67.4,157.5
342,343,7,Amenaza baja,14-25%,"DAPM, curvas de nivel cada 10m",4,31311,Bosque mixto fragmentado con pastos y cultivos,BNFPNC,Qca1(RPan),Cono aluvial 1 rio Pance,3.360281513,-76.54967197,1048.233765,11.39416313,LA RIVERITA,2622310103,343,8/15/2019 0:00,8/15/2019 0:00,8/15/2019LA RIVERITA,-76.54967197,3.360281513,LA RIVERITA,0,0,0,0,0,31.6,147.9,380.9
343,344,7,Amenaza baja,0 a 3%,"DAPM, curvas de nivel cada 10m",1,23170,Pasto cultivado,PCU,Qca2(RPan),Cono aluvial 2 rio Pance,3.304661962,-76.5579334,998.8447876,15.5883131,EL PALACIO,2622100102,344,9/19/2015 0:00,9/19/2015 0:00,9/19/2015EL PALACIO,-76.5579334,3.304661962,EL PALACIO,0,2,3,23,33,33,79,114
344,345,7,Amenaza baja,0 a 3%,"DAPM, curvas de nivel cada 10m",1,23171,Pasto cultivado arbolado,PCUAR,TQj,Formacion Jamundi,3.323417141,-76.55362942,1027.196289,6.002776146,LA RIVERITA,2622310103,345,8/24/2018 0:00,8/24/2018 0:00,8/24/2018LA RIVERITA,-76.55362942,3.323417141,LA RIVERITA,1,1,0.9,0.9,4.9,30.8,53.2,135
345,346,7,Amenaza baja,0 a 3%,"DAPM, curvas de nivel cada 10m",1,23171,Pasto cultivado arbolado,PCUAR,Qca2(RPan),Cono aluvial 2 rio Pance,3.31441348,-76.5491065,1008.344116,6.916009903,EL PALACIO,2622100102,346,9/26/2015 0:00,9/26/2015 0:00,9/26/2015EL PALACIO,-76.5491065,3.31441348,EL PALACIO,0,0,3,5,6,36,72,117
346,347,4,Riesgo bajo,0 a 3%,"DAPM, curvas de nivel cada 10m",1,11211,Zonas urbanas discontinuas,ZUD,Ql/Kv,Lateritas Formacion Volcanica,3.383233242,-76.57595995,1234.062012,26.06775093,LA FONDA,2622320101,347,8/5/2005 0:00,8/5/2005 0:00,8/5/2005LA FONDA CANTA CLARO,-76.57595995,3.383233242,LA FONDA CANTA CLARO,0,2,2,2,2,5,42,200
347,348,7,Amenaza baja,14-25%,"DAPM, curvas de nivel cada 10m",4,32211,Arbustal y matorral abierto bajo de tierra firme,ABAFBA,TQj,Formacion Jamundi,3.300063221,-76.55985382,1011.795471,9.273874283,JAMUNDI,2622100202,348,10/1/2012 0:00,10/1/2012 0:00,10/1/2012EL PALACIO,-76.55985382,3.300063221,EL PALACIO,0,0,1,17,17,17,45,147
348,349,7,Amenaza baja,0 a 3%,"DAPM, curvas de nivel cada 10m",1,23170,Pasto cultivado,PCU,Qca1(RPan),Cono aluvial 1 rio Pance,3.346284138,-76.55083413,1102.266357,4.151127338,LA RIVERITA,2622310103,349,8/4/2019 0:00,8/4/2019 0:00,8/4/2019LA RIVERITA,-76.55083413,3.346284138,LA RIVERITA,0,0,0,0.2,31.6,54.3,282.2,437.4
349,350,7,Amenaza baja,0 a 3%,"DAPM, curvas de nivel cada 10m",1,31331,Bosque mixto fragmentado con vegetación natural,BNFVN,TQj,Formacion Jamundi,3.336051739,-76.5624548,1097.927856,15.42373085,LA RIVERITA,2622310103,350,9/22/2018 0:00,9/22/2018 0:00,9/22/2018LA RIVERITA,-76.5624548,3.336051739,LA RIVERITA,0,0,1.4,46.5,46.5,50.8,80.6,103.2
350,351,7,Amenaza baja,14-25%,"DAPM, curvas de nivel cada 10m",4,23171,Pasto cultivado arbolado,PCUAR,TQj,Formacion Jamundi,3.341416864,-76.56631365,1169.299316,19.77532005,LA RIVERITA,2622310103,351,8/14/2017 0:00,8/14/2017 0:00,8/14/2017LA RIVERITA,-76.56631365,3.341416864,LA RIVERITA,0,0,31.4,31.4,31.4,78.5,156.1,223.3
351,352,4,Riesgo bajo,0 a 3%,"DAPM, curvas de nivel cada 10m",1,12111,Otras superficies artificiales con construcción,OICC,Qca2(RPan),Cono aluvial 2 rio Pance,3.337989403,-76.55086522,1067.003418,9.293491364,LA RIVERITA,2622310103,352,9/24/2018 0:00,9/24/2018 0:00,9/24/2018LA RIVERITA,-76.55086522,3.337989403,LA RIVERITA,0,0,0,7.7,46.5,49.8,80.5,103.1
352,353,7,Amenaza baja,0 a 3%,"DAPM, curvas de nivel cada 10m",1,23170,Pasto cultivado,PCU,TQj,Formacion Jamundi,3.302264746,-76.56056803,999.6237793,10.28762341,JAMUNDI,2622100202,353,8/18/2021 0:00,8/18/2021 0:00,8/18/2021EL PALACIO,-76.56056803,3.302264746,EL PALACIO,0,0,12,14,23,60,69,292
353,354,7,Amenaza baja,14-25%,"DAPM, curvas de nivel cada 10m",4,12211,Otras superficies artificiales sin construcción,OISC,Kv,Formacion Volcanica,3.434052128,-76.54924437,1018.529297,47.70287704,PLANTA RIO CALI,2622400103,354,9/27/2015 0:00,9/27/2015 0:00,9/27/2015PLANTA RIO CALI,-76.54924437,3.434052128,PLANTA RIO CALI,0,0,0,0,0.6,2,24.7,62.7
354,355,4,Riesgo bajo,14-25%,"DAPM, curvas de nivel cada 10m",4,23171,Pasto cultivado arbolado,PCUAR,Ql/Kv,Lateritas Formacion Volcanica,3.430807196,-76.57537227,1365.971558,18.5875473,LOS CRISTALES,2622330105,355,9/24/2003 0:00,9/24/2003 0:00,9/24/2003LOS CRISTALES,-76.57537227,3.430807196,LOS CRISTALES,0,0,12,21,31,79,126,172
355,356,7,Amenaza baja,14-25%,"DAPM, curvas de nivel cada 10m",4,31212,Bosque mixto abierto bajo de tierra firme,BNABAJ,Qca2(RPan),Cono aluvial 2 rio Pance,3.29605512,-76.56027585,984.8694458,30.92143631,JAMUNDI,2622100202,356,9/15/2016 0:00,9/15/2016 0:00,9/15/2016EL PALACIO,-76.56027585,3.29605512,EL PALACIO,0,0,35,49,121,135,163,220
356,357,7,Amenaza baja,14-25%,"DAPM, curvas de nivel cada 10m",4,32211,Arbustal y matorral abierto bajo de tierra firme,ABAFBA,TQj,Formacion Jamundi,3.339782823,-76.56524117,1181.32959,12.11977005,LA RIVERITA,2622310103,357,9/13/2018 0:00,9/13/2018 0:00,9/13/2018LA RIVERITA,-76.56524117,3.339782823,LA RIVERITA,14,14,13.8,13.8,42.1,43.1,50.5,96.9
357,358,4,Riesgo bajo,14-25%,"DAPM, curvas de nivel cada 10m",4,11111,Zonas urbanas continuas,ZUC,Kv,Formacion Volcanica,3.418007106,-76.55681284,989.0836792,14.60753632,IDEAS,2622330111,358,8/1/2016 0:00,8/1/2016 0:00,8/1/2016IDEAS,-76.55681284,3.418007106,IDEAS,0,0,22.2,24.1,24.1,26.7,172.3,346.8
358,359,4,Riesgo bajo,0 a 3%,"DAPM, curvas de nivel cada 10m",1,11111,Zonas urbanas continuas,ZUC,TOg,Formacion Guachinte,3.486140753,-76.52928028,997.3502808,21.3445549,AGUACATAL-MONTEBELLO,2622420101,359,8/7/2014 0:00,8/7/2014 0:00,8/7/2014AGUACATAL-MONTEBELLO,-76.52928028,3.486140753,AGUACATAL-MONTEBELLO,3,3,3,3,8,8,24,72
359,360,7,Amenaza baja,0 a 3%,"DAPM, curvas de nivel cada 10m",1,23171,Pasto cultivado arbolado,PCUAR,TQj,Formacion Jamundi,3.326397673,-76.55358819,1034.130737,1.594659686,LA RIVERITA,2622310103,360,9/24/2018 0:00,9/24/2018 0:00,9/24/2018LA RIVERITA,-76.55358819,3.326397673,LA RIVERITA,0,0,0,7.7,46.5,49.8,80.5,103.1
360,361,7,Amenaza baja,14-25%,"DAPM, curvas de nivel cada 10m",4,31212,Bosque mixto abierto bajo de tierra firme,BNABAJ,TQj,Formacion Jamundi,3.326667919,-76.56167791,1107.866089,29.2084198,LA RIVERITA,2622310103,361,9/25/2018 0:00,9/25/2018 0:00,9/25/2018LA RIVERITA,-76.56167791,3.326667919,LA RIVERITA,0,0,0,1.4,46.9,50.2,80.5,103
361,362,7,Amenaza baja,0 a 3%,"DAPM, curvas de nivel cada 10m",1,23170,Pasto cultivado,PCU,TQj,Formacion Jamundi,3.315672552,-76.57352553,1173.59314,26.09546852,PANCE - CHORRERA,2622110103,362,12/24/2017 0:00,12/24/2017 0:00,12/24/2017PANCE - CHORRERA,-76.57352553,3.315672552,PANCE - CHORRERA,8,8,8.2,8.2,106.4,142,526,686
362,363,7,Amenaza baja,0 a 3%,"DAPM, curvas de nivel cada 10m",1,31112,Bosque mixto denso bajo de tierra firme,BNDBAJ,TQj,Formacion Jamundi,3.311974075,-76.5682507,1095.298096,13.20307255,EL PALACIO,2622100102,363,12/27/2005 0:00,12/27/2005 0:00,12/27/2005EL PALACIO,-76.5682507,3.311974075,EL PALACIO,0,5,89,89,133,185,308,426
363,364,4,Riesgo bajo,14-25%,"DAPM, curvas de nivel cada 10m",4,11211,Zonas urbanas discontinuas,ZUD,Kv,Formacion Volcanica,3.436022888,-76.55018234,1054.556152,9.521448135,PLANTA RIO CALI,2622400103,364,12/3/2016 0:00,12/3/2016 0:00,12/3/2016PLANTA RIO CALI,-76.55018234,3.436022888,PLANTA RIO CALI,6,32,33,33.1,43.5,88,176.3,262.1
364,365,4,Riesgo bajo,14-25%,"DAPM, curvas de nivel cada 10m",4,11211,Zonas urbanas discontinuas,ZUD,Ql/Kv,Lateritas Formacion Volcanica,3.375638998,-76.59500222,1507.419189,46.02421188,LILI - SAN SEBASTIAN,2622310201,365,12/25/2013 0:00,12/25/2013 0:00,12/25/2013LILI - SAN SEBASTIAN,-76.59500222,3.375638998,LILI - SAN SEBASTIAN,0,2,28,47,50,102,281,409
365,366,4,Riesgo bajo,14-25%,"DAPM, curvas de nivel cada 10m",4,23170,Pasto cultivado,PCU,Kv,Formacion Volcanica,3.472802635,-76.56231209,1112.904419,7.045378685,EL COLEGIO,2622420105,366,12/1/2018 0:00,12/1/2018 0:00,12/1/2018EL COLEGIO,-76.56231209,3.472802635,EL COLEGIO,1,5,55.6,67.3,108.7,130.8,217.3,292.9
366,367,7,Amenaza baja,0 a 3%,"DAPM, curvas de nivel cada 10m",1,11211,Zonas urbanas discontinuas,ZUD,Ql/Kv,Lateritas Formacion Volcanica,3.393380268,-76.57820259,1306.085693,18.27513695,LA FONDA,2622320101,367,12/20/2013 0:00,12/20/2013 0:00,12/20/2013LA FONDA CANTA CLARO,-76.57820259,3.393380268,LA FONDA CANTA CLARO,0,3,10,11,24,46,208,262
367,368,4,Riesgo bajo,14-25%,"DAPM, curvas de nivel cada 10m",4,11111,Zonas urbanas continuas,ZUC,TOg,Formacion Guachinte,3.471357094,-76.53156493,988.8447876,26.6015625,COLEGIO SAN LUIS,2622400101,368,12/9/2013 0:00,12/9/2013 0:00,12/9/2013COLEGIO SAN LUIS,-76.53156493,3.471357094,COLEGIO SAN LUIS,5,8,11,49,96,151,423,533
368,369,4,Riesgo bajo,14-25%,"DAPM, curvas de nivel cada 10m",4,23170,Pasto cultivado,PCU,Qca2(RPan),Cono aluvial 2 rio Pance,3.340085595,-76.55322346,1083.403442,11.09665108,LA RIVERITA,2622310103,369,8/27/2018 0:00,8/27/2018 0:00,8/27/2018LA RIVERITA,-76.55322346,3.340085595,LA RIVERITA,0,0,1,1,4.9,30.3,53.2,135.1
369,370,7,Amenaza baja,14-25%,"DAPM, curvas de nivel cada 10m",4,23172,Pasto cultivado enmalezado,PCURA,TQj,Formacion Jamundi,3.318234494,-76.57085451,1187.821167,34.13459015,PANCE - CHORRERA,2622110103,370,12/21/2018 0:00,12/21/2018 0:00,12/21/2018PANCE - CHORRERA,-76.57085451,3.318234494,PANCE - CHORRERA,0,0,0.4,12.6,14.8,266.8,498.8,742.2
370,371,4,Riesgo bajo,0 a 3%,"DAPM, curvas de nivel cada 10m",1,11111,Zonas urbanas continuas,ZUC,TOg,Formacion Guachinte,3.455614344,-76.53655813,1002.692505,13.40801811,COLEGIO SAN LUIS,2622400101,371,12/28/2020 0:00,12/28/2020 0:00,12/28/2020COLEGIO SAN LUIS,-76.53655813,3.455614344,COLEGIO SAN LUIS,0,1,53.8,54,54,82.4,112.4,153.2
371,372,4,Riesgo bajo,14-25%,"DAPM, curvas de nivel cada 10m",4,11111,Zonas urbanas continuas,ZUC,Kv,Formacion Volcanica,3.450561157,-76.54780795,1051.427246,30.33114243,PLANTA RIO CALI,2622400103,372,12/7/2016 0:00,12/7/2016 0:00,12/7/2016PLANTA RIO CALI,-76.54780795,3.450561157,PLANTA RIO CALI,0,9,41.8,42.7,45.7,84.7,171.2,262.2
372,373,4,Riesgo bajo,14-25%,"DAPM, curvas de nivel cada 10m",4,11211,Zonas urbanas discontinuas,ZUD,Ql/Kv,Lateritas Formacion Volcanica,3.381929495,-76.57061462,1189.193237,55.42061234,NAPOLES,2622330108,373,12/6/2019 0:00,12/6/2019 0:00,12/6/2019NAPOLES,-76.57061462,3.381929495,NAPOLES,0,2,17.9,22.3,41.1,70.2,249,363
373,374,7,Amenaza baja,0 a 3%,"DAPM, curvas de nivel cada 10m",1,31352,Bosque de guadua,BG,TQj,Formacion Jamundi,3.313510407,-76.55038432,1018.644531,13.30224609,EL PALACIO,2622100102,374,12/15/2015 0:00,12/15/2015 0:00,12/15/2015EL PALACIO,-76.55038432,3.313510407,EL PALACIO,2,2,2,2,2,89,374.3,500.3
374,375,4,Riesgo bajo,14-25%,"DAPM, curvas de nivel cada 10m",4,11111,Zonas urbanas continuas,ZUC,TOg,Formacion Guachinte,3.465501519,-76.53238393,986.1272583,19.12860107,COLEGIO SAN LUIS,2622400101,375,12/12/2015 0:00,12/12/2015 0:00,12/12/2015COLEGIO SAN LUIS,-76.53238393,3.465501519,COLEGIO SAN LUIS,2,2,2,2,2,6,12,39.4
375,376,7,Amenaza baja,14-25%,"DAPM, curvas de nivel cada 10m",4,21110,Otros cultivos arbóreos plantados densos,OCARD,Ql/Kv,Lateritas Formacion Volcanica,3.43682259,-76.61029739,1507.704956,13.5329895,PICHINDE,2622400108,376,12/8/2022 0:00,12/8/2022 0:00,12/8/2022PICHINDE,-76.61029739,3.43682259,PICHINDE,0,4,21.4,34.4,47.2,137.6,300.4,485.6
376,377,4,Riesgo bajo,14-25%,"DAPM, curvas de nivel cada 10m",4,31111,Bosque mixto denso alto de tierra firme,BNDALT,Ql/Kv,Lateritas Formacion Volcanica,3.503441898,-76.61753506,1902.434814,18.39825249,AGUACATAL,2622420103,377,12/9/2016 0:00,12/9/2016 0:00,12/9/2016AGUACATAL,-76.61753506,3.503441898,AGUACATAL,0,3,12.4,71.4,98,199.4,300,450
377,378,7,Amenaza baja,0 a 3%,"DAPM, curvas de nivel cada 10m",1,31352,Bosque de guadua,BG,Qca2(RPan),Cono aluvial 2 rio Pance,3.319082234,-76.54802018,1015.756653,5.279693604,EL PALACIO,2622100102,378,12/4/2016 0:00,12/4/2016 0:00,12/4/2016EL PALACIO,-76.54802018,3.319082234,EL PALACIO,0,4,10,10,59,129,361,463
378,379,4,Riesgo bajo,14-25%,"DAPM, curvas de nivel cada 10m",4,11111,Zonas urbanas continuas,ZUC,TOg,Formacion Guachinte,3.414295867,-76.56312059,995.3299561,12.98218918,IDEAS,2622330111,379,8/2/2016 0:00,8/2/2016 0:00,8/2/2016IDEAS,-76.56312059,3.414295867,IDEAS,0,0,22.2,23.9,24.1,26.7,139.3,346.8
379,380,7,Amenaza baja,0 a 3%,"DAPM, curvas de nivel cada 10m",1,32310,Vegetación secundaria o transición,VEGSEC,TOf,Formacion Ferreira,3.355017259,-76.56140801,1118.704468,12.7174921,LA RIVERITA,2622310103,380,12/20/2017 0:00,12/20/2017 0:00,12/20/2017LA RIVERITA,-76.56140801,3.355017259,LA RIVERITA,0,0,1.5,10.7,27.8,204.4,318.6,493.4
380,381,4,Riesgo bajo,14-25%,"DAPM, curvas de nivel cada 10m",4,23170,Pasto cultivado,PCU,Qal,Depositos aluviales,3.327818787,-76.63501582,1569.852051,42.98298264,EL TOPACIO,2622110201,381,12/22/2016 0:00,12/22/2016 0:00,12/22/2016EL TOPACIO,-76.63501582,3.327818787,EL TOPACIO,0,19,40.1,40.1,55.9,204.5,433.5,634.1
381,382,4,Riesgo bajo,14-25%,"DAPM, curvas de nivel cada 10m",4,12111,Otras superficies artificiales con construcción,OICC,TOg,Formacion Guachinte,3.339493646,-76.5987921,1307.238647,22.07619858,PANCE - CHORRERA,2622110103,382,12/15/2015 0:00,12/15/2015 0:00,12/15/2015PANCE - CHORRERA,-76.5987921,3.339493646,PANCE - CHORRERA,1,7,7,7.2,24.6,264.2,294.8,309.2
382,383,4,Riesgo bajo,14-25%,"DAPM, curvas de nivel cada 10m",4,23171,Pasto cultivado arbolado,PCUAR,Ql/Kv,Lateritas Formacion Volcanica,3.509529606,-76.618009,1888.755859,25.40715218,SAN PABLO,2622420102,383,12/13/2017 0:00,12/13/2017 0:00,12/13/2017AGUACATAL,-76.618009,3.509529606,AGUACATAL,0,6,7.6,12,31,118.6,232.8,334
383,384,4,Riesgo bajo,14-25%,"DAPM, curvas de nivel cada 10m",4,11111,Zonas urbanas continuas,ZUC,Ql/Kv,Lateritas Formacion Volcanica,3.493046237,-76.60441253,1634.42041,26.78633118,AGUACATAL,2622420103,384,12/28/2015 0:00,12/28/2015 0:00,12/28/2015AGUACATAL,-76.60441253,3.493046237,AGUACATAL,0,0,0,0,18.8,31.6,139.2,156.4
384,385,7,Amenaza baja,14-25%,"DAPM, curvas de nivel cada 10m",4,31311,Bosque mixto fragmentado con pastos y cultivos,BNFPNC,Ql/Kv,Lateritas Formacion Volcanica,3.36399375,-76.55768267,1061.793701,42.00718689,LA RIVERITA,2622310103,385,12/3/2018 0:00,12/3/2018 0:00,12/3/2018LA RIVERITA,-76.55768267,3.36399375,LA RIVERITA,1,10,115.8,118.9,155.1,216.2,326.5,377.3
385,386,7,Amenaza baja,0 a 3%,"DAPM, curvas de nivel cada 10m",1,23170,Pasto cultivado,PCU,TQj,Formacion Jamundi,3.314635766,-76.57220941,1153.140137,29.91915131,PANCE - CHORRERA,2622110103,386,12/18/2015 0:00,12/18/2015 0:00,12/18/2015PANCE - CHORRERA,-76.57220941,3.314635766,PANCE - CHORRERA,6,13,18.2,18.4,26.8,201.4,306.2,320.6
386,387,7,Amenaza baja,14-25%,"DAPM, curvas de nivel cada 10m",4,32310,Vegetación secundaria o transición,VEGSEC,TOf,Formacion Ferreira,3.354980571,-76.56224899,1139.301025,27.18174362,LA RIVERITA,2622310103,387,8/15/2018 0:00,8/15/2018 0:00,8/15/2018LA RIVERITA,-76.56224899,3.354980571,LA RIVERITA,0,4,3.9,3.9,28.7,32.4,78.8,252.8
387,388,4,Riesgo bajo,14-25%,"DAPM, curvas de nivel cada 10m",4,32310,Vegetación secundaria o transición,VEGSEC,Kv,Formacion Volcanica,3.446404925,-76.5496584,1078.86853,45.676754,PLANTA RIO CALI,2622400103,388,12/3/2015 0:00,12/3/2015 0:00,12/3/2015PLANTA RIO CALI,-76.5496584,3.446404925,PLANTA RIO CALI,0,0,0.4,1.7,9.4,46.8,77.5,112.9
388,389,7,Amenaza baja,0 a 3%,"DAPM, curvas de nivel cada 10m",1,23171,Pasto cultivado arbolado,PCUAR,Qca2(RPan),Cono aluvial 2 rio Pance,3.32811232,-76.55243918,1039.669922,8.876957893,LA RIVERITA,2622310103,389,8/11/2017 0:00,8/11/2017 0:00,8/11/2017LA RIVERITA,-76.55243918,3.32811232,LA RIVERITA,2,31,31.4,31.4,31.4,84.5,156.5,271.2
389,390,4,Riesgo bajo,14-25%,"DAPM, curvas de nivel cada 10m",4,23171,Pasto cultivado arbolado,PCUAR,Kv,Formacion Volcanica,3.491878162,-76.61965805,1926.921753,35.33132935,AGUACATAL,2622420103,390,12/29/2016 0:00,12/29/2016 0:00,12/29/2016AGUACATAL,-76.61965805,3.491878162,AGUACATAL,1,17,17.6,90.2,92.6,169,305,487.2
390,391,4,Riesgo bajo,0 a 3%,"DAPM, curvas de nivel cada 10m",1,11111,Zonas urbanas continuas,ZUC,Kv,Formacion Volcanica,3.449610179,-76.53785253,1002.545227,21.55056763,COLEGIO SAN JUAN BOSCO,2622330101,391,12/7/2005 0:00,12/7/2005 0:00,12/7/2005PLANTA RIO CALI,-76.53785253,3.449610179,PLANTA RIO CALI,0,2,75,77,77,221,336,405
391,392,4,Riesgo bajo,0 a 3%,"DAPM, curvas de nivel cada 10m",1,12211,Otras superficies artificiales sin construcción,OISC,Qal,Depositos aluviales,3.412149048,-76.55608814,976.1790771,12.02399445,IDEAS,2622330111,392,12/9/2016 0:00,12/9/2016 0:00,12/9/2016IDEAS,-76.55608814,3.412149048,IDEAS,0,20,102.2,103.4,130.6,182,203.5,215.5
392,393,4,Riesgo bajo,0 a 3%,"DAPM, curvas de nivel cada 10m",1,11111,Zonas urbanas continuas,ZUC,Qca(RMel),Cono aluvial rio Melendez,3.386851144,-76.55038642,975.1843872,9.728899956,NAPOLES,2622330108,393,1/30/2019 0:00,1/30/2019 0:00,1/30/2019NAPOLES,-76.55038642,3.386851144,NAPOLES,0,0,0,0,7.1,46.5,112.6,333.9
393,394,7,Amenaza baja,14-25%,"DAPM, curvas de nivel cada 10m",4,23170,Pasto cultivado,PCU,TQj,Formacion Jamundi,3.29476693,-76.55436834,1013.586792,19.63746071,JAMUNDI,2622100202,394,8/1/2016 0:00,8/1/2016 0:00,8/1/2016EL PALACIO,-76.55436834,3.29476693,EL PALACIO,0,0,7,10,26,38,102,288
394,395,4,Riesgo bajo,14-25%,"DAPM, curvas de nivel cada 10m",4,11111,Zonas urbanas continuas,ZUC,Ql/Kv,Lateritas Formacion Volcanica,3.49079067,-76.60743024,1676.377563,26.58774376,AGUACATAL,2622420103,395,12/10/2016 0:00,12/10/2016 0:00,12/10/2016AGUACATAL,-76.60743024,3.49079067,AGUACATAL,5,8,11.2,76,84,189.6,302.6,454.6
395,396,7,Amenaza baja,14-25%,"DAPM, curvas de nivel cada 10m",4,23171,Pasto cultivado arbolado,PCUAR,TQj,Formacion Jamundi,3.313584756,-76.55876933,1057.846558,47.88902664,EL PALACIO,2622100102,396,12/6/2012 0:00,12/6/2012 0:00,12/6/2012EL PALACIO,-76.55876933,3.313584756,EL PALACIO,0,0,20,36,37,92,116,145
396,397,7,Amenaza baja,0 a 3%,"DAPM, curvas de nivel cada 10m",1,23171,Pasto cultivado arbolado,PCUAR,Qca2(RPan),Cono aluvial 2 rio Pance,3.315243099,-76.54484852,1005.077209,40.76174545,EL PALACIO,2622100102,397,12/21/2016 0:00,12/21/2016 0:00,12/21/2016EL PALACIO,-76.54484852,3.315243099,EL PALACIO,0,39,48,48,70,132,288,497
397,398,7,Amenaza baja,14-25%,"DAPM, curvas de nivel cada 10m",4,23172,Pasto cultivado enmalezado,PCURA,TOf,Formacion Ferreira,3.354330813,-76.56306598,1149.773315,16.67749786,LA RIVERITA,2622310103,398,12/26/2017 0:00,12/26/2017 0:00,12/26/2017LA RIVERITA,-76.56306598,3.354330813,LA RIVERITA,0,68,68,68,100.7,236.8,375.8,534.7
398,399,4,Riesgo bajo,14-25%,"DAPM, curvas de nivel cada 10m",4,11111,Zonas urbanas continuas,ZUC,Qal,Depositos aluviales,3.328077818,-76.63348361,1554.860596,23.31459045,EL TOPACIO,2622110201,399,12/22/2014 0:00,12/22/2014 0:00,12/22/2014EL TOPACIO,-76.63348361,3.328077818,EL TOPACIO,0,0,1.1,20.9,59.3,160.3,410.2,815.6
399,400,7,Amenaza baja,14-25%,"DAPM, curvas de nivel cada 10m",4,23170,Pasto cultivado,PCU,TQj,Formacion Jamundi,3.304601808,-76.57279409,1088.012085,23.03314209,JAMUNDI,2622100202,400,1/4/2019 0:00,1/4/2019 0:00,1/4/2019EL PALACIO,-76.57279409,3.304601808,EL PALACIO,0,0,0,0,3,26,240,401
